,Name,Longtitude,Latitude,Address,Area,St,ZIP,TEL,Code
0,財團法人台北市中華基督教青年會附設新北市私立板新幼兒園,121.47461229999999,25.0129414,新北市板橋區長安里2鄰板新路27號,板橋區,板新路,220,(02)29637400,011XR6
1,財團法人台北市中華基督教青年會附設臺北市私立永吉幼兒園,121.579676,25.045846,臺北市信義區永吉里1鄰永吉路500號,信義區,永吉路,110,(02)2763-1261,321K01
2,財團法人台北市中華基督教青年會附設臺北市私立永吉幼兒園,121.579676,25.045846,臺北市信義區永吉里1鄰永吉路500號,信義區,永吉路,110,(02)2763-1261,321K01
3,臺北市族中非營利幼兒園（委託社團法人台北市教保人員協會辦理）,121.53884040000001,25.0111994,臺北市大安區學府里1鄰羅斯福路4段113巷13號,大安區,羅斯福路,106,(02)27365861,331K05
4,臺北市族中非營利幼兒園（委託社團法人台北市教保人員協會辦理）,121.53884040000001,25.0111994,臺北市大安區學府里1鄰羅斯福路4段113巷13號,大安區,羅斯福路,106,(02)27365861,331K05
5,財團法人台北市中華基督教衛理公會衛理堂附設台北市私立衛理幼兒園,121.53309809999999,25.0398249,臺北市大安區民輝里2鄰新生南路一段113號,大安區,新生南路,106,(02)27713679,331X15
6,財團法人台北市中華基督教衛理公會衛理堂附設台北市私立衛理幼兒園,121.53309809999999,25.0398249,臺北市大安區民輝里2鄰新生南路一段113號,大安區,新生南路,106,(02)27713679,331X15
7,財團法人台北市基督教浸信會懷恩堂附設臺北市私立懷恩幼兒園,121.533171,25.017788,臺北市大安區大學里4鄰新生南路3段90號,大安區,新生南路,106,(02)23636593,331X36
8,財團法人台北市基督教浸信會懷恩堂附設臺北市私立懷恩幼兒園,121.533171,25.017788,臺北市大安區大學里4鄰新生南路3段90號,大安區,新生南路,106,(02)23636593,331X36
9,臺北市安東非營利幼兒園（委託社團法人台北市兒童托育協會辦理）,121.5410933,25.028242300000002,臺北市大安區龍陣里13鄰瑞安街75號,大安區,瑞安街,106,(02)27067642,331X9C
10,臺北市安東非營利幼兒園（委託社團法人台北市兒童托育協會辦理）,121.5410933,25.028242300000002,臺北市大安區龍陣里13鄰瑞安街75號,大安區,瑞安街,106,(02)27067642,331X9C
11,臺北市濱江非營利幼兒園（委託社團法人台北市教保人員協會辦理）,121.5607499,25.07955,臺北市中山區金泰里14鄰樂群二路262號,中山區,樂群二路,104,(02)85026191,341K02
12,臺北市濱江非營利幼兒園（委託社團法人台北市教保人員協會辦理）,121.5607499,25.07955,臺北市中山區金泰里14鄰樂群二路262號,中山區,樂群二路,104,(02)85026191,341K02
13,財團法人台北市私立強恕高級中學附設臺北市私立幼兒園,121.52097240000002,25.024620300000002,臺北市中正區板溪里14鄰汀州路二段143號,中正區,汀州路,100,(02)23680818,351X10
14,財團法人台北市私立強恕高級中學附設臺北市私立幼兒園,121.52097240000002,25.024620300000002,臺北市中正區板溪里14鄰汀州路二段143號,中正區,汀州路,100,(02)23680818,351X10
15,臺北市雙中非營利幼兒園（委託財團法人台北市中華基督教青年會辦理）,121.49262879999999,25.0275702,臺北市萬華區和德里21鄰興義街2號,萬華區,興義街,108,(02)2336-3258,371K01
16,臺北市雙中非營利幼兒園（委託財團法人台北市中華基督教青年會辦理）,121.49262879999999,25.0275702,臺北市萬華區和德里21鄰興義街2號,萬華區,興義街,108,(02)2336-3258,371K01
17,社團法人台北市兒童托育協會附設臺北市私立實踐非營利幼兒園（臺北市政府委託辦理）,121.557268,24.9831947,臺北市文山區樟文里4鄰忠順街一段4號,文山區,忠順街,116,(02)29390246,381K01
18,社團法人台北市兒童托育協會附設臺北市私立實踐非營利幼兒園（臺北市政府委託辦理）,121.557268,24.9831947,臺北市文山區樟文里4鄰忠順街一段4號,文山區,忠順街,116,(02)29390246,381K01
19,臺北市永建非營利幼兒園（委託社團法人台北市教保人員協會辦理）,121.55454099999999,24.988241,臺北市文山區華興里7鄰木柵路一段311巷1號,文山區,木柵路,116,(02)22347257,381K03
20,臺北市永建非營利幼兒園（委託社團法人台北市教保人員協會辦理）,121.55454099999999,24.988241,臺北市文山區華興里7鄰木柵路一段311巷1號,文山區,木柵路,116,(02)22347257,381K03
21,財團法人台北市中國基督教靈糧世界佈道會台北靈糧堂附設臺北市私立靈糧幼兒園,121.56089569999999,25.00541,臺北市文山區興昌里20鄰萬美街2段80號,文山區,萬美街,116,(02)86636650,381X20
22,財團法人台北市中國基督教靈糧世界佈道會台北靈糧堂附設臺北市私立靈糧幼兒園,121.56089569999999,25.00541,臺北市文山區興昌里20鄰萬美街2段80號,文山區,萬美街,116,(02)86636650,381X20
23,財團法人台北市中華基督教景美浸信會附設臺北市私立聖愛幼兒園,121.538754,24.992131,臺北市文山區景美里14鄰育英街63號,文山區,育英街,116,(02)29332244,381X22
24,財團法人台北市中華基督教景美浸信會附設臺北市私立聖愛幼兒園,121.538754,24.992131,臺北市文山區景美里14鄰育英街63號,文山區,育英街,116,(02)29332244,381X22
25,財團法人台北市中華基督教青年會附設臺北市私立文山幼兒園,121.54578240000001,24.9862992,臺北市文山區試院里14鄰和興路2號,文山區,和興路,116,(02)22362817,381X25
26,財團法人台北市中華基督教青年會附設臺北市私立文山幼兒園,121.54578240000001,24.9862992,臺北市文山區試院里14鄰和興路2號,文山區,和興路,116,(02)22362817,381X25
27,臺北市樟新非營利幼兒園（委託社團法人台北市兒童托育協會辦理）,121.55648000000001,24.9796342,臺北市文山區樟新里9鄰一壽街22號,文山區,一壽街,116,(02)86612696#7,381X2C
28,臺北市樟新非營利幼兒園（委託社團法人台北市兒童托育協會辦理）,121.55648000000001,24.9796342,臺北市文山區樟新里9鄰一壽街22號,文山區,一壽街,116,(02)86612696#7,381X2C
29,臺北市景新非營利幼兒園(委託社團法人台北市兒童托育協會辦理),121.5418982,24.9899211,臺北市文山區景行里22鄰景後街151號,文山區,景後街,116,(02)29328566,381X3W
30,臺北市景新非營利幼兒園(委託社團法人台北市兒童托育協會辦理),121.5418982,24.9899211,臺北市文山區景行里22鄰景後街151號,文山區,景後街,116,(02)29328566,381X3W
31,財團法人台北市華亞之聲社中華基督教便以利教會附設臺北市私立華聲幼兒園,121.57332079999999,24.9884576,臺北市文山區萬興里11鄰指南路2段11號,文山區,指南路,116,(02)29392038,381X4V
32,財團法人台北市華亞之聲社中華基督教便以利教會附設臺北市私立華聲幼兒園,121.57332079999999,24.9884576,臺北市文山區萬興里11鄰指南路2段11號,文山區,指南路,116,(02)29392038,381X4V
33,臺北市新東湖非營利幼兒園(委託社團法人台北市幼兒園協會辦理),121.61838780000001,25.0704268,臺北市內湖區東湖里10鄰康樂街110巷16弄22號,內湖區,康樂街,114,(02)26327828,401X59
34,臺北市新東湖非營利幼兒園(委託社團法人台北市幼兒園協會辦理),121.61838780000001,25.0704268,臺北市內湖區東湖里10鄰康樂街110巷16弄22號,內湖區,康樂街,114,(02)26327828,401X59
35,臺北市天母非營利幼兒園（委託社團法人台北市幼兒園協會辦理）,121.5275331,25.1197914,臺北市士林區天玉里3鄰天玉街12號,士林區,天玉街,111,(02)28772327,411K03
36,臺北市天母非營利幼兒園（委託社團法人台北市幼兒園協會辦理）,121.5280957,25.1200102,臺北市士林區天玉里3鄰天玉街12號,士林區,天玉街,111,(02)28772327,411K03
37,臺北市三玉非營利幼兒園（委託社團法人台北市幼兒園協會辦理）,121.5323988,25.1114866,臺北市士林區三玉里14鄰忠誠路二段53巷7號,士林區,忠誠路,111,(02)88661016,411X4F
38,臺北市三玉非營利幼兒園（委託社團法人台北市幼兒園協會辦理）,121.5323988,25.1114866,臺北市士林區三玉里14鄰忠誠路二段53巷7號,士林區,忠誠路,111,(02)88661016,411X4F
39,臺北市吉利非營利幼兒園(委託社團法人台北市親子成長協會辦理),121.505032,25.119493,臺北市北投區立農里25鄰立農街一段366號,北投區,立農街,112,(02)28200118,421X2E
40,臺北市吉利非營利幼兒園(委託社團法人台北市親子成長協會辦理),121.505032,25.119493,臺北市北投區立農里25鄰立農街一段366號,北投區,立農街,112,(02)28200118,421X2E
41,臺北市私立育華幼兒園,121.5516635,25.0460869,臺北市松山區敦化里16鄰八德路3段12巷51弄44之2號,松山區,八德路,105,(02)25706450,311X01
42,財團法人臺北市私立立德幼兒園,121.56294950000002,25.0534842,臺北市松山區東光里26鄰南京東路5段123巷8弄47號,松山區,南京東路,105,(02)27670043,311X02
43,臺北市私立圓圓幼兒園,121.545607,25.053401,臺北市松山區中正里27鄰慶城街20號,松山區,慶城街,105,(02)27121692,311X04
44,育達學校財團法人臺北市私立普林思頓高級中等學校附設臺北市私立點點幼兒園,121.5552254,25.0501265,臺北市松山區復勢里10鄰南京東路四段120巷31號,松山區,南京東路,105,(02)25789177,311X06
45,財團法人臺灣省臺南市天主教鮑思高慈幼會附設臺北市私立思高幼兒園,121.54738799999998,25.05808,臺北市松山區民有里2鄰民生東路三段125號,松山區,民生東路,105,(02)27135473,311X09
46,臺北市私立正欣幼兒園,121.55587,25.0574228,臺北市松山區介壽里11鄰光復北路165巷5號,松山區,光復北路,105,(02)27639957,311X10
47,臺北市私立維多利亞幼兒園,121.5481871,25.0600909,臺北市松山區民有里20鄰民權東路3段160巷19弄17號,松山區,民權東路,105,(02)27183809,311X11
48,臺北市私立光華幼兒園,121.54588740000001,25.0528339,臺北市松山區中正里16鄰慶城街16巷,松山區,慶城街,105,(02)27154555,311X13
49,臺北市私立民權幼兒園,121.56638999999998,25.062814000000003,臺北市松山區新益里5鄰富錦街562巷13號,松山區,富錦街,105,(02)27131092,311X16
50,臺北市私立民族幼兒園,121.56095890000002,25.0578704,臺北市松山區介壽里3鄰新中街4巷,松山區,新中街,105,(02)27612638,311X18
51,臺北市私立郁欣幼兒園,121.55406200000002,25.0460979,臺北市松山區復源里3鄰八德路三段106巷70號,松山區,八德路,105,(02)25787470,311X19
52,臺北市私立三民幼兒園,121.5586861,25.0594008,臺北市松山區東榮里9鄰民生東路五段69巷2弄,松山區,民生東路,105,(02)27651882,311X20
53,臺北市私立童欣幼兒園,121.5598163,25.0605455,臺北市松山區東榮里13鄰富錦街396號,松山區,富錦街,105,(02)27662965,311X21
54,臺北市私立優寶幼兒園,121.5548723,25.0527622,臺北市松山區東勢里5鄰南京東路四段133巷6弄2號,松山區,南京東路,105,(02)27131091,311X24
55,臺北市私立卡兒堡幼兒園,121.551484,25.045251500000003,臺北市松山區敦化里26鄰八德路三段12巷57弄,松山區,八德路,105,(02)25784555,311X2I
56,臺北市私立健寶兒幼兒園,121.5483344,25.0594391,臺北市松山區民有里13鄰敦化北路222巷,松山區,敦化北路,105,(02)27123455,311X2J
57,臺北市經國三民非營利幼兒園（委託財團法人經國管理暨健康學院辦理）,121.56290829999999,25.059315100000003,臺北市松山區三民里18鄰民生東路5段163-1號,松山區,民生東路,105,(02)27564213,311X2O
58,臺北市私立多多優質幼兒園,121.5555304,25.0459165,臺北市松山區復建里8鄰光復南路46巷,松山區,光復南路,105,(02)25791370,311X2Q
59,臺北市私立小敦園幼兒園,121.550349,25.053503,臺北市松山區中華里8鄰敦化北路145巷55號,松山區,敦化北路,105,(02)25459211,311X2X
60,臺北市私立小慶園幼兒園,121.54609599999999,25.053749,臺北市松山區中正里27鄰慶城街16巷9-1號,松山區,慶城街,105,(02)27190521,311X2Y
61,臺北市私立天喜幼兒園,121.5677059,25.0632205,臺北市松山區新益里1鄰民權東路五段102號,松山區,民權東路,105,(02)27672567,311X31
62,臺北市私立賀瑞幼兒園,121.55102140000001,25.0531566,臺北市松山區中華里14鄰南京東路四段53巷11弄1號,松山區,南京東路,105,(02)27127575,311X35
63,臺北市私立勁寶兒民權幼兒園,121.5454303,25.0593685,臺北市松山區民有里6鄰民權東路三段106巷21弄12號,松山區,民權東路,105,(02)27199719,311X38
64,臺北市私立聖如幼兒園,121.5462658,25.0603424,臺北市松山區民有里10鄰復興北路361巷26號,松山區,復興北路,105,(02)27180033,311X3D
65,臺北市私立凱思幼兒園,121.5571872,25.0504424,臺北市松山區復勢里19鄰光復北路100巷8號,松山區,光復北路,105,(02)25791350,311X3H
66,臺北市私立凱思幼兒園,121.5571872,25.0504424,臺北市松山區復勢里19鄰光復北路100巷8號,松山區,光復北路,105,(02)25791350,311X3H
67,臺北市私立喜樂幼兒園,121.565358,25.054053,臺北市松山區安平里9鄰健康路290之1號,松山區,健康路,105,(02)27622872,311X3I
68,臺北市私立親子坊幼兒園,121.5672188,25.0559509,臺北市松山區鵬程里9鄰健康路325巷16號,松山區,健康路,105,(02)27612798,311X3J
69,臺北市私立聖儒幼兒園,121.5461467,25.060326899999996,臺北市松山區民有里10鄰復興北路361巷24號,松山區,復興北路,105,(02)27173888,311X3W
70,臺北市私立資幼幼兒園,121.55871840000002,25.0604779,臺北市松山區東榮里13鄰富錦街372號,松山區,富錦街,105,(02)27674365,311X3Y
71,臺北市私立德馨幼兒園,121.54977620000001,25.046619399999997,臺北市松山區敦化里7鄰八德路三段12巷20弄18號,松山區,八德路,105,(02)25700768,311X40
72,臺北市私立青林幼兒園,121.547878,25.046603,臺北市松山區福成里3鄰敦化南路一段80巷20號,松山區,敦化南路,105,(02)27314531,311X43
73,臺北市私立寶仁幼兒園,121.5552,25.055985,臺北市松山區龍田里32鄰光復北路230巷1號,松山區,光復北路,105,(02)27150971,311X47
74,臺北市私立馨兒園幼兒園,121.55060559999998,25.0459031,臺北市松山區敦化里10鄰八德路三段12巷60號,松山區,八德路,105,(02)25775928,311X48
75,財團法人福智文教基金會附設臺北市私立妙慧幼兒園,121.554744,25.0529935,臺北市松山區東勢里1鄰南京東路4段133巷5弄25號,松山區,南京東路,105,(02)25451307,311X4B
76,臺北市私立嘉勝幼兒園,121.56406409999998,25.0528712,臺北市松山區東光里22鄰三民路,松山區,三民路,105,(02)27648859,311X4E
77,臺北市私立嘉勝幼兒園,121.56406409999998,25.0528712,臺北市松山區東光里22鄰三民路,松山區,三民路,105,(02)27648859,311X4E
78,臺北市私立嘉維幼兒園,121.56406409999998,25.0528712,臺北市松山區東光里22鄰三民路,松山區,三民路,105,(02)27648859,311X4F
79,臺北市私立嘉維幼兒園,121.56406409999998,25.0528712,臺北市松山區東光里22鄰三民路,松山區,三民路,105,(02)27648859,311X4F
80,臺北市私立格爾幼兒園,121.5466648,25.048036899999996,臺北市松山區中崙里7鄰八德路二段402號,松山區,八德路,105,(02)87738855,311X4J
81,臺北市私立松迪幼兒園,121.5649202,25.050819399999998,臺北市松山區新聚里17鄰東興路2巷10號,松山區,東興路,105,(02)27615555,311X4O
82,臺北市立敦化國民中學教師會附設臺北市私立員工子女幼兒園,121.5467135,25.0515711,臺北市松山區中正里11鄰南京東路3段300號,松山區,南京東路,105,(02)87717890#317,311X4Q
83,臺北市私立耕心幼兒園,121.5510601,25.053413199999998,臺北市松山區中華里13鄰南京東路四段53巷11弄2號,松山區,南京東路,105,(02)25463743,311X4S
84,財團法人福智文教基金會附設臺北市私立妙行幼兒園,121.5559743,25.0520902,臺北市松山區東勢里1鄰南京東路4段133巷5弄23號,松山區,南京東路,105,(02)25451351,311X4W
85,臺北市私立友友幼兒園,121.55837450000001,25.052228399999997,臺北市松山區東光里11鄰南京東路五段23巷6弄9號,松山區,南京東路,105,(02)27568845,311X50
86,臺北市私立正欣?蒙幼兒園,121.55576840000002,25.0574138,臺北市松山區介壽里11鄰光復北路165巷3號,松山區,光復北路,105,(02)27639957,311X53
87,臺北市私立純青幼兒園,121.554309,25.0547124,臺北市松山區龍田里36鄰光復北路190巷35號,松山區,光復北路,105,(02)27171217,311X56
88,臺北市私立小親親幼兒園,121.55323929999999,25.0563292,臺北市松山區東昌里12鄰民生東路4段80巷15弄3號,松山區,民生東路,105,(02)27131492,311X58
89,臺北市私立哈寶寶幼兒園,121.5588909,25.059413100000004,臺北市松山區東榮里26鄰民生東路五段69巷2弄13號,松山區,民生東路,105,(02)37653868,311X59
90,臺北市私立豐村幼兒園,121.560806,25.0480799,臺北市松山區復盛里17鄰八德路四段106巷2弄4號,松山區,八德路,105,(02)27619160,311X5B
91,臺北市私立宜家民權蒙特梭利幼兒園,121.5465771,25.061642000000003,臺北市松山區民有里28鄰民權東路3段140巷4號,松山區,民權東路,105,(02)25472626,311X5C
92,臺北市私立凱思寶幼兒園,121.5571872,25.0504424,臺北市松山區復勢里19鄰光復北路100巷8號,松山區,光復北路,105,(02)25791349,311X5E
93,臺北市私立凱思寶幼兒園,121.5571872,25.0504424,臺北市松山區復勢里19鄰光復北路100巷8號,松山區,光復北路,105,(02)25791349,311X5E
94,財團法人台北市中華基督教青年會附設臺北市私立永吉幼兒園,121.579676,25.045846,臺北市信義區永吉里1鄰永吉路500號,信義區,永吉路,110,(02)2763-1261,321K01
95,財團法人台北市中華基督教青年會附設臺北市私立永吉幼兒園,121.579676,25.045846,臺北市信義區永吉里1鄰永吉路500號,信義區,永吉路,110,(02)2763-1261,321K01
96,臺北市私立上群蒙特梭利信義幼兒園,121.57241499999999,25.0416146,臺北市信義區富台里14鄰忠孝東路5段217號,信義區,忠孝東路,110,(02)27693636,321K02
97,臺北市信中非營利幼兒園（委託財團法人福智文教基金會辦理）,121.567577,25.028644,臺北市信義區三張里13鄰松仁路158巷1號,信義區,松仁路,110,(02)2720-2271,321K03
98,臺北市吉中非營利幼兒園(委託財團法人台北基督教女青年會辦理),121.57409469999999,25.048313699999998,臺北市信義區四育里8鄰松隆路161號,信義區,松隆路,110,(02)2768-1159,321K04
99,臺北市?公非營利幼兒園（委託社團法人中華音樂舞蹈暨表演藝術教育協會辦理）,121.5854372,25.037072199999997,臺北市信義區中行里16鄰福德街221巷15號,信義區,福德街,110,(02)27279090,321K05
100,臺北市私立國泰幼兒園,121.57462350000002,25.043256799999998,臺北市信義區長春里5鄰永吉路278巷57弄16號,信義區,永吉路,110,(02)27617760,321X01
101,臺北市私立六三幼兒園,121.5700827,25.026030300000002,臺北市信義區三犁里7鄰信義路5段150巷351號,信義區,信義路,110,(02)23454058,321X04
102,臺北市私立上群蒙特梭利忠孝幼兒園,121.56738179999999,25.0423074,臺北市信義區興雅里24鄰忠孝東路5段207號,信義區,忠孝東路,110,(02)27691208,321X05
103,臺北市私立君格幼兒園,121.56685990000001,25.043612,臺北市信義區敦厚里4鄰松隆路9巷,信義區,松隆路,110,(02)27614112,321X09
104,臺北市私立友愛幼兒園,121.580568,25.0408,臺北市信義區松光里13鄰忠孝東路5段524巷5弄23號,信義區,忠孝東路,110,(02)27285918,321X13
105,臺北市私立寶兒寶幼兒園,121.55805079999999,25.0366125,臺北市信義區正和里14鄰光復南路419巷17號,信義區,光復南路,110,(02)23458112,321X19
106,臺北市私立天主教三德幼兒園,121.5688375,25.024319600000002,臺北市信義區六合里5鄰松仁路228巷15號,信義區,松仁路,110,(02)27221062#11,321X21
107,臺北市私立天琪幼兒園,121.56929099999999,25.021088,臺北市信義區泰和里28鄰吳興街600巷83弄,信義區,吳興街,110,(02)27233079,321X22
108,臺北市私立慧光幼兒園,121.576198,25.035827899999997,臺北市信義區安康里18鄰虎林街232巷66弄1號,信義區,虎林街,110,(02)27279422,321X26
109,臺北市私立喬伊幼兒園,121.5807334,25.041385100000003,臺北市信義區松光里12鄰忠孝東路五段524巷3弄27號,信義區,忠孝東路,110,(02)23460084,321X2J
110,臺北市私立甲子園幼兒園,121.55500079999999,25.0225199,臺北市信義區黎平里12鄰信安街161號,信義區,信安街,110,(02)27358636,321X2P
111,臺北市私立全心幼兒園,121.575011,25.0477,臺北市信義區四育里11鄰虎林街40巷30號,信義區,虎林街,110,(02)27660046,321X2R
112,臺北市私立聖幼幼兒園,121.576198,25.035827899999997,臺北市信義區安康里18鄰虎林街232巷54號,信義區,虎林街,110,(02)27599391,321X2S
113,臺北市私立傑生幼兒園,121.5730939,25.041943399999997,臺北市信義區富台里7鄰忠孝東路五段295巷6弄,信義區,忠孝東路,110,(02)27480759,321X2T
114,臺北市私立逸仙幼兒園,121.56211940000001,25.040111,臺北市信義區興隆里13鄰逸仙路42巷6號,信義區,逸仙路,110,(02)27224144,321X2Y
115,臺北市私立達德幼兒園,121.56680700000001,25.027464000000002,臺北市信義區三張里9鄰莊敬路423巷2弄4號,信義區,莊敬路,110,(02)27295967,321X34
116,臺北市私立吳興幼兒園,121.56942179999999,25.026047600000002,臺北市信義區三犁里4鄰松仁路253巷3弄8號,信義區,松仁路,110,(02)27253008,321X3A
117,臺北市私立宗周幼兒園,121.5791162,25.042101300000002,臺北市信義區永春里9鄰松山路393巷32號,信義區,松山路,110,(02)87852293,321X3C
118,臺北市私立信義蒙特梭利幼兒園,121.5728879,25.038071300000002,臺北市信義區安康里6鄰忠孝東路五段236巷45弄9號,信義區,忠孝東路,110,(02)27251155,321X3J
119,臺北市政府附設臺北市私立市政大樓員工子女幼兒園,121.56443270000001,25.0375417,臺北市信義區西村里8鄰市府路1號,信義區,市府路,110,(02)27208889#3430,321X3L
120,臺北市私立培諾米達信義幼兒園,121.57490630000001,25.036465600000003,臺北市信義區安康里20鄰松德路161之4號,信義區,松德路,110,(02)27266099,321X3N
121,財團法人中華文化社會福利事業基金會台北兒童福利中心附設臺北市私立實驗幼兒園,121.5710605,25.0421944,臺北市信義區富台里14鄰虎林街120巷270號,信義區,虎林街,110,(02)27679264#501,321X3T
122,臺北市私立清心幼兒園,121.58288429999999,25.0373448,臺北市信義區中坡里1鄰福德街137巷,信義區,福德街,110,(02)27261705,321X3W
123,臺北市私立微笑幼兒園,121.55721869999999,25.0212596,臺北市信義區黎平里23鄰和平東路3段341巷12號,信義區,和平東路,110,(02)87323560,321X45
124,臺北市私立子畝蒙特梭利幼兒園,121.58030690000001,25.0420492,臺北市信義區松光里10鄰忠孝東路5段558號,信義區,忠孝東路,110,(02)27592360,321X46
125,臺北市私立佑保幼兒園,121.578152,25.0407609,臺北市信義區松光里1鄰忠孝東路五段490號,信義區,忠孝東路,110,(02)27594855,321X47
126,臺北市私立何嘉仁信安寶貝幼兒園,121.5548703,25.0228544,臺北市信義區黎平里11鄰信安街200號,信義區,信安街,110,(02)27369666,321X48
127,臺北市私立菁英種子幼兒園,121.5337088,25.0402879,臺北市大安區民輝里10鄰濟南路3段11號,大安區,濟南路,106,(02)27315785,331K01
128,臺北市私立弘人幼兒園,121.547633,25.0283749,臺北市大安區龍雲里17鄰四維路170巷3號,大安區,四維路,106,(02)27047899,331K02
129,耕莘健康管理專科學校附設臺北市私立黃鸝鳥非營利幼兒園（臺北市政府委託辦理）,121.5354217,25.0140674,臺北市大安區學府里17鄰羅斯福路四段21號,大安區,羅斯福路,106,(02)23621071,331K03
130,臺北市私立樹屋幼兒園,121.55204609999998,25.0285635,臺北市大安區通安里18鄰樂利路11巷19號,大安區,樂利路,106,(02)23782200#28,331K04
131,臺北市族中非營利幼兒園（委託社團法人台北市教保人員協會辦理）,121.53884040000001,25.0111994,臺北市大安區學府里1鄰羅斯福路4段113巷13號,大安區,羅斯福路,106,(02)27365861,331K05
132,臺北市族中非營利幼兒園（委託社團法人台北市教保人員協會辦理）,121.53884040000001,25.0111994,臺北市大安區學府里1鄰羅斯福路4段113巷13號,大安區,羅斯福路,106,(02)27365861,331K05
133,臺北市懷中非營利幼兒園（委託財團法人海棠文教基金會辦理）,121.5417856,25.0410225,臺北市大安區義村里11鄰忠孝東路3段248巷30號,大安區,忠孝東路,106,(02)27114688,331K06
134,臺北市新安非營利幼兒園（委託社團法人台灣幼兒早期教育協會辦理）,121.5491744,25.0199392,臺北市大安區芳和里8鄰臥龍街129號,大安區,臥龍街,106,(02)27360227,331K07
135,臺北市私立陽光小屋幼兒園,121.54046509999998,25.0284017,臺北市大安區龍陣里1鄰瑞安街208巷14弄24號,大安區,瑞安街,106,(02)27070728,331K08
136,臺北市私立國際蒙特梭利大安森林幼兒園,121.53344950000002,25.0363234,臺北市大安區民炤里5鄰新生南路1段143巷,大安區,新生南路,106,(02)27846537,331K09
137,財團法人天主教會台北教區附設臺北市私立曉星幼兒園,121.55629499999999,25.034374,臺北市大安區光信里27鄰延吉街254號,大安區,延吉街,106,(02)27033211,331X05
138,臺北市私立寶血幼兒園,121.5299557,25.021928600000003,臺北市大安區古風里9鄰泰順街60巷18弄8號,大安區,泰順街,106,(02)23631896,331X06
139,財團法人台灣聖公會附設臺北市私立聖約翰幼兒園,121.54317859999999,25.024459699999998,臺北市大安區龍淵里1鄰復興南路二段280號,大安區,復興南路,106,(02)27327334,331X07
140,臺北市私立華菂幼兒園,121.5506291,25.0257479,臺北市大安區全安里8鄰安和路二段217巷,大安區,安和路,106,(02)27350267,331X08
141,臺北市私立華菂幼兒園,121.5506291,25.0257479,臺北市大安區全安里8鄰安和路二段217巷,大安區,安和路,106,(02)27350267,331X08
142,臺北市私立育樂幼兒園,121.55610459999998,25.020091600000004,臺北市大安區黎孝里17鄰和平東路三段308巷,大安區,和平東路,106,(02)27355304,331X11
143,財團法人台北市中華基督教衛理公會衛理堂附設台北市私立衛理幼兒園,121.53309809999999,25.0398249,臺北市大安區民輝里2鄰新生南路一段113號,大安區,新生南路,106,(02)27713679,331X15
144,財團法人台北市中華基督教衛理公會衛理堂附設台北市私立衛理幼兒園,121.53309809999999,25.0398249,臺北市大安區民輝里2鄰新生南路一段113號,大安區,新生南路,106,(02)27713679,331X15
145,財團法人臺北市私立立人國際國民中小學附設臺北市私立幼兒園,121.5519283,25.029835199999997,臺北市大安區通安里20鄰安和路二段99號,大安區,安和路,106,(02)27361388#518,331X19
146,臺北市私立惠真幼兒園,121.5558341,25.028531100000002,臺北市大安區臨江里14鄰通化街143巷31號,大安區,通化街,106,(02)27383431,331X21
147,財團法人天主教會台北教區附設臺北市私立信光幼兒園,121.55328870000001,25.0275281,臺北市大安區法治里9鄰通化街178號,大安區,通化街,106,(02)27386770,331X23
148,臺北市私立信望愛幼兒園,121.548069,25.024060000000002,臺北市大安區虎嘯里2鄰敦化南路二段172巷3號,大安區,敦化南路,106,(02)27330444,331X30
149,臺北市私立愛英幼兒園,121.5268137,25.029229100000002,臺北市大安區錦安里2鄰金山南路二段159巷3號,大安區,金山南路,106,(02)23219844,331X31
150,臺北市私立佳安幼兒園,121.550017,25.024171600000003,臺北市大安區黎孝里7鄰樂業街,大安區,樂業街,106,(02)27332971,331X32
151,臺北市私立四維幼兒園,121.54682290000001,25.0257016,臺北市大安區群賢里13鄰和平東路三段1巷25號,大安區,和平東路,106,(02)27073718,331X34
152,財團法人臺北市私立復興實驗高級中學附設臺北市私立幼兒園,121.5484403,25.0394418,臺北市大安區敦安里19鄰敦化南路一段262號,大安區,敦化南路,106,(02)27715859#411,331X35
153,財團法人台北市基督教浸信會懷恩堂附設臺北市私立懷恩幼兒園,121.533171,25.017788,臺北市大安區大學里4鄰新生南路3段90號,大安區,新生南路,106,(02)23636593,331X36
154,財團法人台北市基督教浸信會懷恩堂附設臺北市私立懷恩幼兒園,121.533171,25.017788,臺北市大安區大學里4鄰新生南路3段90號,大安區,新生南路,106,(02)23636593,331X36
155,臺北市私立仁和幼兒園,121.5420346,25.043209100000002,臺北市大安區誠安里5鄰忠孝東路三段251巷9弄8號,大安區,忠孝東路,106,(02)27111787,331X37
156,臺北市私立光目華德福幼兒園,121.5560672,25.0356372,臺北市大安區光信里15鄰延吉街241巷2弄11號,大安區,延吉街,106,(02)23253638,331X38
157,新民學校財團法人臺北市私立新民國民小學附設臺北市私立幼兒園,121.53166110000001,25.0222236,臺北市大安區龍坡里22鄰辛亥路一段113號,大安區,辛亥路,106,(02)23630450#600,331X39
158,財團法人臺北市私立蒙特梭利幼兒園,121.5338203,25.0408247,臺北市大安區民輝里14鄰新生南路1段103巷27號,大安區,新生南路,106,(02)27529503#20,331X43
159,財團法人臺灣大學校園建設基金會附設臺北市私立幼兒園,121.53896100000001,25.014,臺北市大安區學府里17鄰基隆路四段144巷59弄12號,大安區,基隆路,106,(02)33664428,331X44
160,財團法人臺北市私立金甌女子高級中學附設臺北市私立幼兒園,121.52418190000002,25.034768,臺北市大安區光明里9鄰杭州南路二段1號,大安區,杭州南路,106,(02)33931683,331X48
161,臺北市私立陽光寶貝幼兒園,121.53373,25.0374406,臺北市大安區民炤里2鄰新生南路1段133巷9號,大安區,新生南路,106,(02)27038699,331X49
162,臺北市私立恩寶園幼兒園,121.5343881,25.036096,臺北市大安區民炤里5鄰新生南路一段143巷20號,大安區,新生南路,106,(02)27000289#9,331X4A
163,臺北市私立格林菲爾幼兒園,121.5509713,25.0272957,臺北市大安區全安里16鄰安和路二段181巷,大安區,安和路,106,(02)87329191,331X4C
164,臺北市私立英羽幼兒園,121.54465800000001,25.0294617,臺北市大安區龍雲里5鄰復興南路二段111巷17弄7號,大安區,復興南路,106,(02)27096006,331X4I
165,臺北市私立上學趣蒙特梭利幼兒園,121.54192090000001,25.0433796,臺北市大安區誠安里5鄰忠孝東路3段251巷9弄,大安區,忠孝東路,106,(02)87739963,331X4L
166,臺北市私立丘山幼兒園,121.53344440000001,25.041698999999998,臺北市大安區民輝里16鄰忠孝東路三段10巷8號,大安區,忠孝東路,106,(02)27711031,331X4M
167,臺北市私立小天心幼兒園,121.52415900000001,25.029436999999998,臺北市大安區錦泰里11鄰潮州街57號,大安區,潮州街,106,(02)23568960,331X4S
168,臺北市私立滿兒圓幼兒園,121.5535281,25.0363245,臺北市大安區敦煌里19鄰仁愛路四段300巷20弄15號,大安區,仁愛路,106,(02)27543381,331X4T
169,臺北市私立上愛幼兒園,121.53217009999999,25.0209109,臺北市大安區大學里7鄰溫州街52巷14號,大安區,溫州街,106,(02)23629886,331X4V
170,臺北市私立敦歆幼兒園,121.5401375,25.0422117,臺北市大安區昌隆里1鄰忠孝東路三段217巷2弄8號,大安區,忠孝東路,106,(02)27761626,331X53
171,臺北市私立邦尼幼兒園,121.5324981,25.0233396,臺北市大安區龍坡里11鄰和平東路一段248巷18號,大安區,和平東路,106,(02)23685253,331X57
172,臺北市私立巧而園幼兒園,121.55226119999999,25.0268062,臺北市大安區法治里7鄰樂利路45巷6號,大安區,樂利路,106,(02)27362869,331X58
173,臺北市私立幼苗幼兒園,121.5532283,25.0347485,臺北市大安區敦煌里13鄰安和路一段127巷13號,大安區,安和路,106,(02)27000178,331X59
174,臺北市私立何嘉仁延吉幼兒園,121.55599199999999,25.034887,臺北市大安區光信里27鄰延吉街250號,大安區,延吉街,106,(02)27086092,331X5C
175,臺北市私立磊心信義幼兒園,121.5465912,25.034381399999997,臺北市大安區德安里4鄰四維路76巷17號,大安區,四維路,106,(02)27014947,331X5D
176,臺北市私立信宜幼兒園,121.5509098,25.0344177,臺北市大安區敦安里9鄰安和路一段102巷17號,大安區,安和路,106,(02)27099157,331X5E
177,臺北市私立熱帶魚幼兒園,121.5506354,25.0395887,臺北市大安區建倫里3鄰忠孝東路四段170巷24號,大安區,忠孝東路,106,(02)27526136,331X5F
178,臺北市私立伊帝馬幼兒園,121.5282879,25.0333903,臺北市大安區永康里6鄰金山南路二段13巷17號,大安區,金山南路,106,(02)23966726,331X5G
179,臺北市私立仁愛幼兒園,121.54308759999999,25.0351522,臺北市大安區和安里11鄰信義路三段147巷15弄27號,大安區,信義路,106,(02)27093131,331X5I
180,臺北市私立蔚景幼兒園,121.54466740000001,25.034224,臺北市大安區仁慈里5鄰復興南路1段313巷6號,大安區,復興南路,106,(02)27042496,331X5L
181,臺北市私立經緯幼兒園,121.54229029999999,25.027766399999997,臺北市大安區龍陣里11鄰復興南路二段160巷16號,大安區,復興南路,106,(02)27045180,331X5M
182,臺北市私立菁英幼兒園,121.53455690000001,25.0393917,臺北市大安區民輝里3鄰新生南路一段119巷15號,大安區,新生南路,106,(02)27718292,331X5N
183,臺北市私立梓園幼兒園,121.5319064,25.032935199999997,臺北市大安區福住里4鄰信義路二段228巷9號,大安區,信義路,106,(02)23570414,331X5P
184,臺北市私立親親幼兒園,121.55415990000002,25.0430918,臺北市大安區華聲里15鄰延吉街109號,大安區,延吉街,106,(02)27753636,331X5W
185,臺北市私立貓熊幼兒園,121.53929040000001,25.0309435,臺北市大安區龍圖里6鄰建國南路二段79巷33號,大安區,建國南路,106,(02)27048016#22,331X5X
186,臺北市私立童年空間幼兒園,121.55434170000001,25.034959100000002,臺北市大安區敦煌里4鄰信義路四段265巷20弄18號,大安區,信義路,106,(02)27840326#14,331X61
187,臺北市私立童馨幼兒園,121.554023,25.019087,臺北市大安區黎元里1鄰樂業街182號,大安區,樂業街,106,(02)27320003,331X63
188,臺北市私立蒙特梭利愛兒園幼兒園,121.53350390000001,25.034762699999998,臺北市大安區民炤里9鄰新生南路一段161巷4之9號,大安區,新生南路,106,(02)27054343,331X69
189,臺北市私立嘟嘟幼兒園,121.55721740000001,25.0440215,臺北市大安區華聲里1鄰光復南路96巷2之1號,大安區,光復南路,106,(02)27218791,331X6I
190,臺北市私立爾雅幼兒園,121.5454494,25.0287253,臺北市大安區龍雲里14鄰大安路二段160巷20號,大安區,大安路,106,(02)27022953,331X6J
191,臺北市私立巧琪幼兒園,121.55598700000002,25.0339349,臺北市大安區光信里29鄰信義路四段265巷31弄26號,大安區,信義路,106,(02)27068376,331X6T
192,有限責任臺北市立金華國民中學員生消費合作社附設臺北市私立員工子女幼兒園,121.533178,25.031201199999998,臺北市大安區福住里1鄰新生南路二段32號,大安區,新生南路,106,(02)33931799#591,331X6V
193,臺北市私立長青幼兒園,121.5509608,25.023240100000002,臺北市大安區虎嘯里12鄰基隆路二段232號,大安區,基隆路,106,(02)27327056,331X6W
194,臺北市私立長青幼兒園,121.5509608,25.023240100000002,臺北市大安區虎嘯里12鄰基隆路二段232號,大安區,基隆路,106,(02)27327056,331X6W
195,臺北市私立禾心蒙特梭利幼兒園,121.5531676,25.0341191,臺北市大安區敦煌里11鄰安和路一段135巷16號,大安區,安和路,106,(02)27014947,331X74
196,臺北市私立享銘幼兒園,121.534828,25.035449800000002,臺北市大安區民炤里14鄰信義路三段31巷11號,大安區,信義路,106,(02)27546816,331X78
197,臺北市私立奇幻幼兒園,121.53936000000002,25.04222,臺北市大安區昌隆里8鄰忠孝東路三段217巷1弄7號,大安區,忠孝東路,106,(02)27401155,331X7C
198,臺北市私立吉事達康博喜幼兒園,121.5473153,25.022563899999998,臺北市大安區虎嘯里6鄰臥龍街43巷5號,大安區,臥龍街,106,(02)27381616,331X7D
199,臺北市私立卡朵蒙特梭利幼兒園,121.5470638,25.0269988,臺北市大安區群賢里17鄰四維路192巷12號,大安區,四維路,106,(02)27084028,331X7F
200,臺北市私立勁寶兒幼兒園,121.54359040000001,25.0434598,臺北市大安區誠安里17鄰復興南路一段92之8號,大安區,復興南路,106,(02)27111077,331X7I
201,臺北市正義非營利幼兒園（委託社團法人中華婦幼發展協會辦理）,121.5381848,25.0411649,臺北市大安區義村里15鄰忠孝東路三段216巷4弄41號,大安區,忠孝東路,106,(02)27726656,331X7N
202,臺北市私立格登幼兒園,121.5357176,25.0376573,臺北市大安區民炤里1鄰仁愛路三段26之1號,大安區,仁愛路,106,(02)27548168,331X7Q
203,臺北市私立人安幼兒園,121.54709229999999,25.0310788,臺北市大安區住安里15鄰四維路154巷19號,大安區,四維路,106,(02)27041113,331X7W
204,臺北市私立桔子蒙特梭利幼兒園,121.535821,25.0397602,臺北市大安區民輝里6鄰仁愛路三段51巷8號,大安區,仁愛路,106,(02)27790069,331X7X
205,臺北市私立心藝術幼兒園,121.529131,25.031197,臺北市大安區永康里2鄰永康街14巷8號,大安區,永康街,106,(02)33222123,331X7Y
206,臺北市私立大瑪幼兒園,121.5459357,25.0255704,臺北市大安區群賢里4鄰和平東路二段265巷44號,大安區,和平東路,106,(02)27070126,331X7Z
207,財團法人中華民國郵政職工福利委員會附設臺北市私立員工子女幼兒園,121.52394679999999,25.0310074,臺北市大安區錦泰里4鄰愛國東路210巷9號,大安區,愛國東路,106,(02)23931261#3516,331X84
208,財團法人中國文化大學附設臺北市私立文化幼兒園,121.5388098,25.0272547,臺北市大安區龍生里16鄰瑞安街256巷18號,大安區,瑞安街,106,(02)27085583,331X86
209,臺北市私立大成幼兒園,121.52756399999998,25.0235965,臺北市大安區古莊里14鄰雲和街8號,大安區,雲和街,106,(02)23697443,331X87
210,臺北市私立三暉幼兒園,121.52571509999999,25.026939000000002,臺北市大安區錦華里18鄰和平東路一段91號,大安區,和平東路,106,(02)23225491,331X8D
211,臺北市私立心聲幼兒園,121.53349299999999,25.023988,臺北市大安區龍坡里5鄰新生南路三段22巷14號,大安區,新生南路,106,(02)23634169,331X8G
212,臺北市私立華康幼兒園,121.52941580000001,25.0298563,臺北市大安區永康里1鄰金華街223之5號,大安區,金華街,106,(02)23914431,331X8S
213,臺北市辛亥非營利幼兒園（委託社團法人中華婦幼發展協會辦理）,121.544049,25.021576899999996,臺北市大安區臥龍里5鄰辛亥路三段11號,大安區,辛亥路,106,(02)27322374,331X8U
214,臺北市私立新生寶貝幼兒園,121.53192720000001,25.0333844,臺北市大安區福住里4鄰信義路2段230號,大安區,信義路,106,(02)23959817,331X8W
215,臺北市私立磊心蒙特梭利幼兒園,121.5471098,25.0337176,臺北市大安區德安里4鄰信義路四段99巷,大安區,信義路,106,(02)27014947,331X8X
216,臺北市私立真心蒙特梭利幼兒園,121.55072109999999,25.0338315,臺北市大安區敦安里11鄰安和路1段112巷20號,大安區,安和路,106,(02)27050319,331X90
217,臺北市私立巧可麗國際幼兒園,121.5312946,25.0226946,臺北市大安區龍坡里21鄰泰順街45號,大安區,泰順街,106,(02)33653322,331X91
218,臺北市私立上群蒙特梭利幼兒園,121.5420798,25.0388085,臺北市大安區義村里20鄰仁愛路3段123巷5號,大安區,仁愛路,106,(02)87719739,331X94
219,臺北市私立家森幼兒園,121.525545,25.024817600000002,臺北市大安區古莊里3鄰羅斯福路二段101巷19號,大安區,羅斯福路,106,(02)23643218,331X96
220,臺北市私立安和寶貝幼兒園,121.55200900000001,25.0351042,臺北市大安區敦安里5鄰安和路一段78巷,大安區,安和路,106,(02)27029668,331X98
221,臺北市私立長青蒙特梭利幼兒園,121.5509608,25.023240100000002,臺北市大安區虎嘯里12鄰基隆路二段232號,大安區,基隆路,106,(02)27327056,331X99
222,臺北市私立長青蒙特梭利幼兒園,121.5509608,25.023240100000002,臺北市大安區虎嘯里12鄰基隆路二段232號,大安區,基隆路,106,(02)27327056,331X99
223,臺北市私立予心屋幼兒園,121.55635,25.0363496,臺北市大安區光信里13鄰光復南路420巷19號,大安區,光復南路,106,(02)27056166,331X9B
224,臺北市安東非營利幼兒園（委託社團法人台北市兒童托育協會辦理）,121.5410933,25.028242300000002,臺北市大安區龍陣里13鄰瑞安街75號,大安區,瑞安街,106,(02)27067642,331X9C
225,臺北市安東非營利幼兒園（委託社團法人台北市兒童托育協會辦理）,121.5410933,25.028242300000002,臺北市大安區龍陣里13鄰瑞安街75號,大安區,瑞安街,106,(02)27067642,331X9C
226,臺北市私立三愛幼兒園,121.532338,25.021581,臺北市大安區大學里6鄰溫州街48巷15號,大安區,溫州街,106,(02)23680388,331X9E
227,臺北市私立亞瑟王皇家幼兒園,121.52595749999999,25.028831600000004,臺北市大安區錦華里1鄰潮州街108號,大安區,潮州街,106,(02)23584018,331X9G
228,臺北市私立娃娃家蒙特梭利幼兒園,121.54551940000002,25.0335589,臺北市大安區仁慈里1鄰信義路四段61號,大安區,信義路,106,(02)27009515,331X9H
229,臺北市私立橘子樹幼兒園,121.5404563,25.0280579,臺北市大安區新龍里1鄰瑞安街208巷2號,大安區,瑞安街,106,(02)27087011,331X9I
230,臺北市私立及愛菁英幼兒園,121.5305115,25.0212477,臺北市大安區古風里14鄰辛亥路一段79號,大安區,辛亥路,106,(02)23683686,331X9K
231,臺北市私立蔚思幼兒園,121.5506291,25.0257479,臺北市大安區全安里8鄰安和路二段217巷,大安區,安和路,106,(02)27350269,331X9L
232,臺北市私立蔚思幼兒園,121.5506291,25.0257479,臺北市大安區全安里8鄰安和路二段217巷,大安區,安和路,106,(02)27350269,331X9L
233,臺北市私立喬幼一江幼兒園,121.53163909999998,25.0528527,臺北市中山區中吉里2鄰一江街21號,中山區,一江街,104,(02)25628898,341K01
234,臺北市濱江非營利幼兒園（委託社團法人台北市教保人員協會辦理）,121.5607499,25.07955,臺北市中山區金泰里14鄰樂群二路262號,中山區,樂群二路,104,(02)85026191,341K02
235,臺北市濱江非營利幼兒園（委託社團法人台北市教保人員協會辦理）,121.5607499,25.07955,臺北市中山區金泰里14鄰樂群二路262號,中山區,樂群二路,104,(02)85026191,341K02
236,臺北市私立蘊品幼兒園,121.5638179,25.078035,臺北市中山區金泰里13鄰基湖路147號,中山區,基湖路,104,(02)25322793,341K03
237,臺北市國防部大直非營利幼兒園（委託財團法人實踐大學辦理）,121.54474840000002,25.0831778,臺北市中山區大直里35鄰崇實路127號,中山區,崇實路,104,(02)25320398,341K04
238,實踐大學附設臺北市私立幼兒園,121.54472859999998,25.084573199999998,臺北市中山區大直里35鄰大直街70號,中山區,大直街,104,(02)25336078,341X06
239,臺北市私立立興幼兒園,121.53903590000002,25.0656642,臺北市中山區行仁里10鄰龍江路342巷37號,中山區,龍江路,104,(02)25034564,341X08
240,臺北市私立小甜甜幼兒園,121.539383,25.064433800000003,臺北市中山區行仁里1鄰五常街51號,中山區,五常街,104,(02)25052178,341X09
241,臺北市私立五常幼兒園,121.5416919,25.0666534,臺北市中山區下埤里7鄰龍江路377巷24號,中山區,龍江路,104,(02)25025750,341X10
242,臺北市私立新生幼兒園,121.5280598,25.059679100000004,臺北市中山區中庄里4鄰新生北路2段125號,中山區,新生北路,104,(02)25414534,341X13
243,臺北市私立新自立幼兒園,121.53088659999999,25.066169,臺北市中山區新喜里11鄰吉林路407巷7號,中山區,吉林路,104,(02)25964546,341X15
244,臺北市私立道明幼兒園,121.530001,25.0646299,臺北市中山區新福里11鄰吉林路378號,中山區,吉林路,104,(02)25942294#1061,341X19
245,臺北市私立大愛幼兒園,121.5351584,25.0584888,臺北市中山區松江里11鄰松江路221巷15號,中山區,松江路,104,(02)25023200,341X25
246,臺北市私立日光貝比幼兒園,121.5220908,25.061083899999996,臺北市中山區集英里12鄰中山北路二段116巷9號,中山區,中山北路,104,(02)25717858,341X27
247,臺北市私立科見幼兒園,121.53119199999999,25.050631399999997,臺北市中山區興亞里16鄰松江路90巷9號,中山區,松江路,104,(02)25641420,341X28
248,臺北市私立加楓國際蒙特梭利幼兒園,121.53211780000001,25.0568861,臺北市中山區中吉里19鄰松江路188巷9號,中山區,松江路,104,(02)25419969,341X29
249,臺北市私立晨星蒙特梭利幼兒園,121.540048,25.0530409,臺北市中山區復華里12鄰龍江路114巷6號,中山區,龍江路,104,(02)25047216,341X2D
250,臺北市私立小伊園幼兒園,121.53534590000001,25.0540977,臺北市中山區中央里13鄰伊通街27之1號,中山區,伊通街,104,(02)25167861,341X2I
251,有限責任臺北市立五常國民中學員生消費合作社附設臺北市私立員工子女幼兒園,121.543251,25.063480399999996,臺北市中山區下埤里3鄰復興北路430巷1號,中山區,復興北路,104,(02)25048846,341X2M
252,臺北市私立友丞幼兒園,121.54341240000001,25.0601175,臺北市中山區江山里26鄰錦州街452號,中山區,錦州街,104,(02)25093438,341X2N
253,臺北市私立幼馨幼兒園,121.53825549999999,25.0611813,臺北市中山區江寧里5鄰合江街180巷19號,中山區,合江街,104,(02)25080977,341X2T
254,臺北市私立正光幼兒園,121.5327375,25.0618809,臺北市中山區新生里2鄰松江路362巷,中山區,松江路,104,(02)25223774,341X2V
255,臺北市私立笙愛幼兒園,121.53217849999999,25.0497189,臺北市中山區興亞里14鄰松江路78巷8號,中山區,松江路,104,(02)25818356,341X34
256,臺北市私立傑聲幼兒園,121.5462033,25.078001399999998,臺北市中山區永安里30鄰明水路397巷2弄,中山區,明水路,104,(02)25328550,341X37
257,臺北市私立愛迪兒幼兒園,121.530979,25.0561704,臺北市中山區中吉里16鄰松江路170巷17號,中山區,松江路,104,(02)25222745,341X3E
258,臺北市私立蒙特梭利快樂園幼兒園,121.55266840000002,25.079942199999998,臺北市中山區金泰里3鄰樂群二路,中山區,樂群二路,104,(02)25337952,341X3J
259,臺北市私立龍江幼兒園,121.54169180000001,25.0654526,臺北市中山區下埤里9鄰龍江路397巷12號,中山區,龍江路,104,(02)25097435,341X3M
260,臺北市私立河岸小百合蒙特梭利幼兒園,121.5487771,25.0785399,臺北市中山區永安里32鄰明水路397巷19弄18號,中山區,明水路,104,(02)25322766,341X3U
261,臺北市私立韋斯登幼兒園,121.54030320000001,25.0588327,臺北市中山區江山里11鄰合江街73巷33號,中山區,合江街,104,(02)25081568,341X3V
262,臺北市私立艾達幼兒園,121.56710700000001,25.077506,臺北市中山區金泰里14鄰堤頂大道二段,中山區,堤頂大道,104,(02)85011373,341X3W
263,臺北市私立建國幼兒園,121.53632409999999,25.052615399999997,臺北市中山區中央里10鄰建國北路二段6巷1號,中山區,建國北路,104,(02)25075564,341X3Y
264,臺北市私立喬幼國際幼兒園,121.5430436,25.0621163,臺北市中山區下埤里2鄰民權東路三段,中山區,民權東路,104,(02)25181888,341X45
265,臺北市私立嘉霖幼兒園,121.53296,25.0627166,臺北市中山區新福里5鄰民權東路2段107號,中山區,民權東路,104,(02)25927525,341X4A
266,臺北市私立山秀幼兒園,121.5522968,25.081892899999996,臺北市中山區成功里13鄰明水路606巷16號,中山區,明水路,104,(02)85021798,341X4C
267,臺北市私立新自立全人幼兒園,121.530534,25.066910999999998,臺北市中山區新喜里11鄰德惠街150號,中山區,德惠街,104,(02)25964546,341X4F
268,臺北市私立宜家蒙特梭利幼兒園,121.54129040000001,25.0595527,臺北市中山區江山里20鄰龍江路271巷5號,中山區,龍江路,104,(02)25023113,341X4G
269,臺北市私立國際蒙特梭利幼兒園,121.555777,25.079632,臺北市中山區成功里14鄰樂群二路128號,中山區,樂群二路,104,(02)85021622,341X4H
270,臺北市私立荳荳園幼兒園,121.54050919999999,25.0487005,臺北市中山區力行里5鄰龍江路31號,中山區,龍江路,104,(02)27771300,341X4I
271,臺北市私立蒙特梭利欣兒園幼兒園,121.56710700000001,25.077506,臺北市中山區金泰里14鄰堤頂大道2段,中山區,堤頂大道,104,(02)85021515,341X4O
272,臺北市私立松江蒙特梭利幼兒園,121.5326525,25.0527065,臺北市中山區中吉里1鄰松江路124巷,中山區,松江路,104,(02)25639885,341X4Q
273,臺北市私立喬可幼兒園,121.5489358,25.080175600000004,臺北市中山區永安里34鄰北安路554巷19號,中山區,北安路,104,(02)25329555,341X4R
274,臺北市私立蒙特梭利花園幼兒園,121.5478709,25.0779055,臺北市中山區永安里28鄰明水路397巷7弄2號,中山區,明水路,104,(02)25329338,341X4S
275,臺北市私立大智幼兒園,121.54871370000001,25.077861399999996,臺北市中山區永安里28鄰明水路397巷7弄24號,中山區,明水路,104,(02)25320696,341X4T
276,臺北市私立傑瑞富幼兒園,121.52356499999999,25.0449952,臺北市中正區梅花里6鄰忠孝東路一段9號,中正區,忠孝東路,100,(02)5582-5168#0208,351K01
277,臺北市私立家緣蒙特梭利幼兒園,121.52489990000001,25.0363308,臺北市中正區文祥里15鄰杭州南路1段131巷5號,中正區,杭州南路,100,(02)33222686,351K02
278,臺北市私立何嘉仁臨沂幼兒園,121.52868219999999,25.0363858,臺北市中正區三愛里28鄰臨沂街65巷1號,中正區,臨沂街,100,(02)23919678,351K03
279,耕莘健康管理專科學校附設臺北市私立螢橋非營利幼兒園(臺北市政府委託辦理),121.5261508,25.019455899999997,臺北市中正區林興里8鄰汀洲路三段4號,中正區,汀洲路,100,(02)23621061,351K04
280,國防醫學院附設臺北市私立愛德幼兒園,121.52754640000002,25.0159963,臺北市中正區富水里11鄰汀州路3段24巷5弄12號,中正區,汀州路,100,(02)23686489,351X09
281,財團法人台北市私立強恕高級中學附設臺北市私立幼兒園,121.52097240000002,25.024620300000002,臺北市中正區板溪里14鄰汀州路二段143號,中正區,汀州路,100,(02)23680818,351X10
282,財團法人台北市私立強恕高級中學附設臺北市私立幼兒園,121.52097240000002,25.024620300000002,臺北市中正區板溪里14鄰汀州路二段143號,中正區,汀州路,100,(02)23680818,351X10
283,臺北市私立乖乖幼兒園,121.5169207,25.0323734,臺北市中正區永昌里18鄰南海路,中正區,南海路,100,(02)23033807,351X11
284,臺北市私立聯華幼兒園,121.5101808,25.0271595,臺北市中正區永昌里18鄰南海路110之1號,中正區,南海路,100,(02)23078855,351X12
285,財團法人中華基督教衛理公會附設臺北市私立城中衛理幼兒園,121.5196942,25.032645300000002,臺北市中正區新營里6鄰寧波東街9巷6號,中正區,寧波東街,100,(02)23952273,351X14
286,臺北市私立中正區清華幼兒園,121.50932549999999,25.0389075,臺北市中正區建國里2鄰貴陽街一段58號,中正區,貴陽街,100,(02)23118221,351X16
287,臺北市私立巨勝幼兒園,121.52871100000002,25.037654,臺北市中正區文北里4鄰金山南路一段67巷8號,中正區,金山南路,100,(02)23936965,351X1C
288,國立臺灣大學醫學院附設醫院附設臺北市私立員工子女幼兒園,121.51719440000001,25.0416163,臺北市中正區黎明里4鄰常德街1號,中正區,常德街,100,(02)23123456#67384,351X1F
289,臺北市私立百家姓幼兒園,121.50689229999999,25.0331058,臺北市中正區愛國里10鄰延平南路248巷3號,中正區,延平南路,100,(02)23810932,351X1I
290,臺北市私立蒙特梭利童圓幼兒園,121.53162920000001,25.0398755,臺北市中正區幸市里8鄰濟南路二段54-1號,中正區,濟南路,100,(02)23957517,351X1K
291,臺北市私立寶貝幼兒園,121.50960900000001,25.026425,臺北市中正區永昌里6鄰寧波西街181巷44號,中正區,寧波西街,100,(02)23053874,351X1M
292,財團法人信誼基金會附設臺北市私立實驗幼兒園,121.51539540000002,25.0299695,臺北市中正區龍福里21鄰重慶南路二段75號,中正區,重慶南路,100,(02)23965305#1023,351X1N
293,法務部附設臺北市私立員工子女幼兒園,121.5120466,25.036200199999996,臺北市中正區建國里4鄰重慶南路1段136巷2號,中正區,重慶南路,100,(02)23713445,351X1O
294,臺北市私立南門幼兒園,121.516035,25.0285353,臺北市中正區南福里15鄰重慶南路三段27巷4號,中正區,重慶南路,100,(02)23910571,351X1V
295,臺北市私立維格幼兒園,121.5080678,25.033635399999998,臺北市中正區南門里3鄰廣州街8巷13號,中正區,廣州街,100,(02)23816101,351X1X
296,臺灣高等法院附設臺北市私立員工子女幼兒園,121.51176399999999,25.036095,臺北市中正區建國里4鄰重慶南路一段136巷4號,中正區,重慶南路,100,(02)23319976,351X23
297,臺北市私立涵鈺新天地幼兒園,121.52255890000002,25.0425552,臺北市中正區幸福里3鄰林森南路12號,中正區,林森南路,100,(02)23576386,351X26
298,臺北市私立智寶園幼兒園,121.52158759999999,25.0278068,臺北市中正區南福里2鄰羅斯福路2段50號,中正區,羅斯福路,100,(02)23560362,353X09
299,臺北市大龍峒非營利幼兒園（委託財團法人台北基督教女青年會辦理）,121.51355339999999,25.0753508,臺北市大同區老師里13鄰重慶北路3段320號,大同區,重慶北路,103,(02)25922221,361K01
300,財團法人陳德星堂附設臺北市私立德星幼兒園,121.5149908,25.055404199999998,臺北市大同區星明里7鄰寧夏路27號,大同區,寧夏路,103,(02)25567150#16,361X01
301,臺北市私立榮星幼兒園,121.508503,25.0583499,臺北市大同區大有里15鄰歸綏街303巷9號,大同區,歸綏街,103,(02)25536699,361X02
302,財團法人天主教會台北教區附設臺北市私立聖心幼兒園,121.51488799999998,25.057244,臺北市大同區雙連里27鄰民生西路245號,大同區,民生西路,103,(02)25578119,361X03
303,財團法人王氏太原堂附設臺北市私立太原幼兒園,121.51244960000001,25.071686899999996,臺北市大同區鄰江里20鄰迪化街二段243巷2號,大同區,迪化街,103,(02)25942628,361X07
304,臺北市私立功文雪泥幼兒園,121.51564840000002,25.0744172,臺北市大同區重慶里12鄰哈密街59巷,大同區,哈密街,103,(02)25948254,361X09
305,臺北市私立功文成長幼兒園,121.5160716,25.075751699999998,臺北市大同區重慶里12鄰大同區哈密街59巷83號,大同區,大同區哈密街,103,(02)25946008,361X0E
306,臺北市私立博登幼兒園,121.5172494,25.070585,臺北市大同區至聖里16鄰承德路三段208巷29號,大同區,承德路,103,(02)25871879,361X0K
307,臺北市私立甜甜屋幼兒園,121.5133065,25.073509,臺北市大同區老師里8鄰重慶北路三段296巷4弄4號,大同區,重慶北路,103,(02)25960916,361X0M
308,臺北市私立甜甜屋親子幼兒園,121.513107,25.072736199999998,臺北市大同區老師里6鄰哈密街143之2號,大同區,哈密街,103,(02)25960916,361X0N
309,臺北市私立親兒園蒙特梭利幼兒園,121.5184199,25.0551608,臺北市大同區光能里9鄰承德路2段47號,大同區,承德路,103,(02)2559-0888,361X0P
310,臺北市私立育學幼兒園,121.51543799999999,25.0682546,臺北市大同區揚雅里1鄰民族西路162巷3號,大同區,民族西路,103,(02)25986967,361X0Q
311,臺北市私立格爾登幼兒園,121.5180682,25.0646995,臺北市大同區蓬萊里5鄰承德路三段40號,大同區,承德路,103,(02)25982833,361X0X
312,臺北市重慶非營利幼兒園（委託財團法人彭婉如文教基金會辦理）,121.51673559999999,25.069322,臺北市大同區至聖里10鄰大龍街187巷1號,大同區,大龍街,103,(02)25918330,361X14
313,臺北市私立海桔斯幼兒園,121.5115621,25.062332,臺北市大同區南芳里9鄰延平北路二段,大同區,延平北路,103,(02)25532687,361X15
314,臺北市私立水晶幼兒園,121.51076440000001,25.062178399999997,臺北市大同區南芳里10鄰延平北路二段272巷7號,大同區,延平北路,103,(02)25535198,361X17
315,臺北市雙中非營利幼兒園（委託財團法人台北市中華基督教青年會辦理）,121.49262879999999,25.0275702,臺北市萬華區和德里21鄰興義街2號,萬華區,興義街,108,(02)2336-3258,371K01
316,臺北市雙中非營利幼兒園（委託財團法人台北市中華基督教青年會辦理）,121.49262879999999,25.0275702,臺北市萬華區和德里21鄰興義街2號,萬華區,興義街,108,(02)2336-3258,371K01
317,財團法人天主教光仁文教基金會附設臺北市私立育仁幼兒園,121.4995499,25.032310600000002,臺北市萬華區雙園里8鄰興寧街70號,萬華區,興寧街,108,(02)23040131,371X02
318,臺北市私立光仁國民小學附設幼兒園,121.4998143,25.020904,臺北市萬華區興德里2鄰萬大路423巷28弄2號,萬華區,萬大路,108,(02)23032874#891,371X03
319,臺北市私立博愛幼兒園,121.495246,25.019057999999998,臺北市萬華區華中里11鄰武成街28巷9弄2號,萬華區,武成街,108,(02)23072749,371X04
320,臺北市私立德明幼兒園,121.49928490000002,25.0200069,臺北市萬華區興德里5鄰萬大路449巷28弄3號,萬華區,萬大路,108,(02)23073007,371X05
321,臺北市私立大理幼兒園,121.4944946,25.030352399999998,臺北市萬華區和平里10鄰雙園街67巷3弄,萬華區,雙園街,108,(02)23044506,371X08
322,臺北市私立慈愛幼兒園,121.4939138,25.0239771,臺北市萬華區孝德里4鄰寶興街140巷23號,萬華區,寶興街,108,(02)23078147,371X09
323,臺北市私立育光幼兒園,121.49297379999999,25.0224186,臺北市萬華區孝德里14鄰德昌街185巷68號,萬華區,德昌街,108,(02)23015139,371X10
324,臺北市私立英才幼兒園,121.50010390000001,25.0282413,臺北市萬華區日善里13鄰萬大路200號,萬華區,萬大路,108,(02)23072584,371X11
325,臺北市私立幼佳幼兒園,121.4942816,25.0291712,臺北市萬華區和平里23鄰雙園街18巷12號,萬華區,雙園街,108,(02)23026545,371X13
326,北部台灣基督長老教會艋舺教會附設臺北市私立愛心幼兒園,121.5032638,25.039586899999996,臺北市萬華區福音里2鄰貴陽街二段94號,萬華區,貴陽街,108,(02)23314921#11,371X21
327,臺北市私立雪拉比幼兒園,121.4912626,25.0340923,臺北市萬華區華江里11鄰環河南路二段250巷1號,萬華區,環河南路,108,(02)23065715,371X2O
328,臺北市私立聖保羅幼兒園,121.505904,25.0405429,臺北市萬華區新起里22鄰長沙街2段52號,萬華區,長沙街,108,(02)23753690,371X2R
329,臺北市私立德昌幼兒園,121.4958659,25.023909,臺北市萬華區忠德里13鄰德昌街166號,萬華區,德昌街,108,(02)23395958,371X2T
330,臺北市私立青年幼兒園,121.50636599999999,25.026696899999997,臺北市萬華區新和里28鄰國興路90-7號,萬華區,國興路,108,(02)23370181,371X2W
331,臺北市私立寶興幼兒園,121.4958107,25.0220303,臺北市萬華區銘德里3鄰寶興街228號,萬華區,寶興街,108,(02)23375171,371X2Y
332,臺北市私立歡樂童年幼兒園,121.50621399999999,25.027323000000003,臺北市萬華區新和里25鄰中華路二段428之4號,萬華區,中華路,108,(02)23018609,371X2Z
333,臺北市私立娃娃果幼兒園,121.49548840000001,25.0322027,臺北市萬華區雙園里3鄰艋舺大道184號,萬華區,艋舺大道,108,(02)23069008,371X39
334,臺北市私立盈虹幼兒園,121.4943986,25.027240300000003,臺北市萬華區忠德里2鄰西園路二段207號,萬華區,西園路,108,(02)23325452,371X3C
335,臺北市私立何嘉仁中華幼兒園,121.5110662,25.024276699999998,臺北市萬華區騰雲里2鄰中華路二段,萬華區,中華路,108,(02)23094679,371X3G
336,臺北市私立寧馨苑幼兒園,121.4942816,25.0284927,臺北市萬華區和德里1鄰西藏路239號,萬華區,西藏路,108,(02)23392488,371X3I
337,臺北市私立小樹苗華頓幼兒園,121.50501399999999,25.0261329,臺北市萬華區新和里4鄰青年路30巷1號,萬華區,青年路,108,(02)23375275,371X3L
338,臺北市私立名人幼兒園,121.494022,25.026797,臺北市萬華區忠德里2鄰西園路2段227之1號,萬華區,西園路,108,(02)23016998,371X3M
339,財團法人海棠文教基金會附設臺北市私立國興非營利幼兒園(臺北市政府委託辦理),121.50758799999998,25.025259,臺北市萬華區凌霄里10鄰國興路46號,萬華區,國興路,108,(02)2303-8164,373X21
340,社團法人台北市兒童托育協會附設臺北市私立實踐非營利幼兒園（臺北市政府委託辦理）,121.557268,24.9831947,臺北市文山區樟文里4鄰忠順街一段4號,文山區,忠順街,116,(02)29390246,381K01
341,社團法人台北市兒童托育協會附設臺北市私立實踐非營利幼兒園（臺北市政府委託辦理）,121.557268,24.9831947,臺北市文山區樟文里4鄰忠順街一段4號,文山區,忠順街,116,(02)29390246,381K01
342,臺北市文修非營利幼兒園（委託財團法人三之三生命教育基金會辦理）,121.54039920000001,25.0039259,臺北市文山區萬祥里1鄰興隆路一段68號,文山區,興隆路,116,(02)29355633,381K02
343,臺北市永建非營利幼兒園（委託社團法人台北市教保人員協會辦理）,121.55454099999999,24.988241,臺北市文山區華興里7鄰木柵路一段311巷1號,文山區,木柵路,116,(02)22347257,381K03
344,臺北市永建非營利幼兒園（委託社團法人台北市教保人員協會辦理）,121.55454099999999,24.988241,臺北市文山區華興里7鄰木柵路一段311巷1號,文山區,木柵路,116,(02)22347257,381K03
345,臺北市興福非營利幼兒園（委託財團法人三之三生命教育基金會辦理）,121.54991319999999,25.004896600000002,臺北市文山區興旺里14鄰福興路80號,文山區,福興路,116,(02)29306640,381K04
346,臺北市私立滬江高級中學附設幼兒園,121.5389166,24.9894519,臺北市文山區景美里1鄰羅斯福路六段336號,文山區,羅斯福路,116,(02)86632915,381K05
347,臺北市私立梅爾森幼兒園,121.57053159999998,24.9838796,臺北市文山區木新里30鄰木新路二段79巷12弄,文山區,木新路,116,(02)86610262,381K06
348,靜心學校財團法人臺北市私立靜心高級中等學校附設幼兒園,121.5467338,24.998863,臺北市文山區興福里17鄰興隆路二段46號,文山區,興隆路,116,(02)29323118#514,381X04
349,臺北市私立樹人幼兒園,121.54569369999999,24.9968238,臺北市文山區興福里14鄰景華街121巷17弄9號,文山區,景華街,116,(02)29310558,381X05
350,臺北市私立家家幼兒園,121.5595183,24.9939326,臺北市文山區興家里3鄰興隆路三段,文山區,興隆路,116,(02)22307500,381X07
351,臺北市私立惠生幼兒園,121.56101629999999,24.9948883,臺北市文山區興家里12鄰興隆路三段207巷10弄,文山區,興隆路,116,(02)22308526,381X09
352,財團法人天主教會臺北教區附設臺北市私立若石幼兒園,121.5391653,25.004670899999997,臺北市文山區萬盛里3鄰羅斯福路五段51號,文山區,羅斯福路,116,(02)29328022,381X10
353,臺北市私立仁美幼兒園,121.56752,24.9898199,臺北市文山區木柵里7鄰木柵路3段85巷14弄14號,文山區,木柵路,116,(02)29395610,381X11
354,臺北市私立中山國民小學附設幼兒園,121.5563833,24.9880195,臺北市文山區華興里28鄰木柵路1段378巷26號,文山區,木柵路,116,(02)29360935#700,381X14
355,私立再興高級中學附設臺北市幼兒園,121.55888999999999,24.988870000000002,臺北市文山區明義里4鄰木柵路二段1-6號,文山區,木柵路,116,(02)29366803#302,381X16
356,財團法人台北市中國基督教靈糧世界佈道會台北靈糧堂附設臺北市私立靈糧幼兒園,121.56089569999999,25.00541,臺北市文山區興昌里20鄰萬美街2段80號,文山區,萬美街,116,(02)86636650,381X20
357,財團法人台北市中國基督教靈糧世界佈道會台北靈糧堂附設臺北市私立靈糧幼兒園,121.56089569999999,25.00541,臺北市文山區興昌里20鄰萬美街2段80號,文山區,萬美街,116,(02)86636650,381X20
358,臺北市私立書宜幼兒園,121.540645,24.995608999999998,臺北市文山區景仁里1鄰羅斯福路六段150巷22號,文山區,羅斯福路,116,(02)89322211,381X21
359,財團法人台北市中華基督教景美浸信會附設臺北市私立聖愛幼兒園,121.538754,24.992131,臺北市文山區景美里14鄰育英街63號,文山區,育英街,116,(02)29332244,381X22
360,財團法人台北市中華基督教景美浸信會附設臺北市私立聖愛幼兒園,121.538754,24.992131,臺北市文山區景美里14鄰育英街63號,文山區,育英街,116,(02)29332244,381X22
361,臺北市私立全能幼兒園,121.5552199,24.978942899999996,臺北市文山區樟新里18鄰樟新街26號,文山區,樟新街,116,(02)29367367,381X24
362,財團法人台北市中華基督教青年會附設臺北市私立文山幼兒園,121.54578240000001,24.9862992,臺北市文山區試院里14鄰和興路2號,文山區,和興路,116,(02)22362817,381X25
363,財團法人台北市中華基督教青年會附設臺北市私立文山幼兒園,121.54578240000001,24.9862992,臺北市文山區試院里14鄰和興路2號,文山區,和興路,116,(02)22362817,381X25
364,臺北市私立比利馬幼兒園,121.547095,24.987121600000002,臺北市文山區試院里26鄰木柵路一段87號,文山區,木柵路,116,(02)22362468,381X27
365,臺北市樟新非營利幼兒園（委託社團法人台北市兒童托育協會辦理）,121.55648000000001,24.9796342,臺北市文山區樟新里9鄰一壽街22號,文山區,一壽街,116,(02)86612696#7,381X2C
366,臺北市樟新非營利幼兒園（委託社團法人台北市兒童托育協會辦理）,121.55648000000001,24.9796342,臺北市文山區樟新里9鄰一壽街22號,文山區,一壽街,116,(02)86612696#7,381X2C
367,臺北市私立三義幼兒園,121.5645055,24.987997500000002,臺北市文山區木柵里27鄰木柵路三段48巷1弄,文山區,木柵路,116,(02)86619636,381X2G
368,臺北市私立千千幼兒園,121.56698899999999,24.989518,臺北市文山區木柵里3鄰木柵路三段85巷8弄5號,文山區,木柵路,116,(02)29397502,381X2H
369,臺北市私立文山仁和幼兒園,121.55843519999999,24.9836714,臺北市文山區樟文里1鄰忠順街一段10巷,文山區,忠順街,116,(02)29364473,381X2L
370,臺北市私立巧可麗幼兒園,121.539304,24.9996,臺北市文山區景仁里10鄰景福街,文山區,景福街,116,(02)29303077,381X2T
371,臺北市私立幼兒館幼兒園,121.5695248,24.9844004,臺北市文山區木新里2鄰木新路2段128號,文山區,木新路,116,(02)22341515,381X2V
372,臺北市私立幼林幼兒園,121.5391962,24.9990348,臺北市文山區景仁里9鄰景福街31號,文山區,景福街,116,(02)29326469,381X2W
373,臺北市私立何嘉仁文山幼兒園,121.54038899999999,24.997172,臺北市文山區景仁里6鄰羅斯福路六段130號,文山區,羅斯福路,116,(02)29306607,381X32
374,臺北市私立諾貝兒幼兒園,121.54870349999999,25.0021272,臺北市文山區興邦里16鄰興隆路二段203巷,文山區,興隆路,116,(02)29351301,381X34
375,臺北市私立阿布格小科學家幼兒園,121.5614437,24.9846,臺北市文山區順興里5鄰興隆路四段,文山區,興隆路,116,(02)86613011,381X3J
376,臺北市私立文山懷恩幼兒園,121.54930700000001,25.004282,臺北市文山區興旺里22鄰福興路63巷4弄,文山區,福興路,116,(02)29308618,381X3L
377,臺北市私立寶馨幼兒園,121.53846599999999,24.994792,臺北市文山區景慶里19鄰溪口街85巷7弄6號,文山區,溪口街,116,(02)86635966,381X3M
378,臺北市私立荳荳幼兒園,121.5460942,24.9871205,臺北市文山區試院里25鄰木柵路一段59巷2號,文山區,木柵路,116,(02)22369488,381X3P
379,臺北市私立何嘉仁興隆幼兒園,121.55424199999999,25.000676000000002,臺北市文山區興業里7鄰興隆路二段252號,文山區,興隆路,116,(02)29310584,381X3R
380,臺北市景新非營利幼兒園(委託社團法人台北市兒童托育協會辦理),121.5418982,24.9899211,臺北市文山區景行里22鄰景後街151號,文山區,景後街,116,(02)29328566,381X3W
381,臺北市景新非營利幼兒園(委託社團法人台北市兒童托育協會辦理),121.5418982,24.9899211,臺北市文山區景行里22鄰景後街151號,文山區,景後街,116,(02)29328566,381X3W
382,臺北市私立巨星幼兒園,121.5641159,24.989420199999998,臺北市文山區木柵里18鄰秀明路1段,文山區,秀明路,116,(02)29381987,381X44
383,臺北市私立和楓園幼兒園,121.55419479999999,25.0014893,臺北市文山區興泰里5鄰辛亥路四段252巷1號,文山區,辛亥路,116,(02)29301345,381X46
384,臺北市私立子愛幼兒園,121.56241499999999,24.984039499999998,臺北市文山區順興里6鄰興隆路四段165巷,文山區,興隆路,116,(02)29377790,381X4G
385,臺北市景美非營利幼兒園（委託財團法人台北基督教女青年會辦理）,121.5516136,25.001648899999996,臺北市文山區興業里1鄰興隆路二段160-1號,文山區,興隆路,116,(02)29304824,381X4J
386,臺北市私立吉太幼兒園,121.56480900000001,24.982260999999998,臺北市文山區樟腳里13鄰木新路三段45巷7弄,文山區,木新路,116,(02)29392220,381X4P
387,臺北市私立清華幼兒園,121.55531699999999,24.999829300000002,臺北市文山區興得里11鄰興隆路三段36巷9弄2號,文山區,興隆路,116,(02)29311714,381X4R
388,財團法人台北市華亞之聲社中華基督教便以利教會附設臺北市私立華聲幼兒園,121.57332079999999,24.9884576,臺北市文山區萬興里11鄰指南路2段11號,文山區,指南路,116,(02)29392038,381X4V
389,財團法人台北市華亞之聲社中華基督教便以利教會附設臺北市私立華聲幼兒園,121.57332079999999,24.9884576,臺北市文山區萬興里11鄰指南路2段11號,文山區,指南路,116,(02)29392038,381X4V
390,臺北市私立頌恩幼兒園,121.5718956,25.000508399999998,臺北市文山區萬芳里12鄰萬安街91號,文山區,萬安街,116,(02)22305679,381X4X
391,臺北市私立勁寶兒公館幼兒園,121.5391653,25.004670899999997,臺北市文山區萬盛里1鄰萬盛街42號,文山區,萬盛街,116,(02)86631486,381X54
392,臺北市私立台北紐西蘭幼兒園,121.575897,24.990421100000002,臺北市文山區萬興里37鄰政大,文山區,政大,116,(02)86611156,381X56
393,臺北市私立快樂諾貝兒幼兒園,121.55280800000001,25.001324,臺北市文山區興業里6鄰興隆路二段222之2號,文山區,興隆路,116,(02)29301241,381X58
394,臺北市私立南方幼兒園,121.5600274,25.0091982,臺北市文山區興昌里15鄰辛亥路四段21巷,文山區,辛亥路,116,(02)29328553,381X59
395,臺北市私立宛的弗幼兒園,121.5625565,24.984769399999998,臺北市文山區順興里15鄰忠順街二段,文山區,忠順街,116,(02)29391207,381X5B
396,臺北市私立幼學館幼兒園,121.5695248,24.9844004,臺北市文山區木新里2鄰木新路2段130號,文山區,木新路,116,(02)22341515,381X5C
397,臺北市私立彩虹屋幼兒園,121.55419479999999,25.0014893,臺北市文山區興泰里12鄰辛亥路四段130巷5號,文山區,辛亥路,116,(02)29354278,381X5D
398,臺北市私立立揚幼兒園,121.54325800000001,24.991255,臺北市文山區景行里22鄰景興路258號,文山區,景興路,116,(02)29333238,381X5E
399,臺北市私立道生南港幼兒園,121.5988434,25.0569695,臺北市南港區重陽里3鄰重陽路187巷1號,南港區,重陽路,115,(02)27880661,391K01
400,臺北市胡適非營利幼兒園（委託社團法人中華音樂舞蹈暨表演藝術教育協會辦理）,121.617798,25.042714800000002,臺北市南港區中研里10鄰舊莊街一段1號,南港區,舊莊街,115,(02)26513362,391K02
401,臺北市向陽非營利幼兒園（委託社團法人嬰幼兒教育與家庭發展協會辦理）,121.59474499999999,25.053584,臺北市南港區西新里1鄰向陽路31號,南港區,向陽路,115,(02)2785-6151,391K03
402,臺北市私立咪咪陳幼兒園,121.6140619,25.063130100000002,臺北市南港區三重里22鄰重陽路551號,南港區,重陽路,115,(02)27820568,391K04
403,臺北市私立莒光幼兒園,121.62198719999999,25.0395896,臺北市南港區舊莊里10鄰舊莊街一段145巷6弄31號,南港區,舊莊街,115,(02)27821776,391X02
404,臺北市私立樹德幼兒園,121.5874626,25.0455361,臺北市南港區成福里3鄰東新街80巷11弄2號,南港區,東新街,115,(02)27854601,391X05
405,臺北市私立海格斯大千幼兒園,121.5876098,25.0395145,臺北市南港區百福里2鄰福德街310巷,南港區,福德街,115,(02)27868889,391X06
406,臺北市私立傑生寶華國際幼兒園,121.5892348,25.040485999999998,臺北市南港區成福里36鄰成福路207巷,南港區,成福路,115,(02)27852538,391X07
407,臺北市私立大華幼兒園,121.5872845,25.0479398,臺北市南港區聯成里4鄰忠孝東路6段212巷4弄,南港區,忠孝東路,115,(02)26533111,391X08
408,中央研究院附設臺北市私立幼兒園,121.6131561,25.0476687,臺北市南港區中研里20鄰研究院路2段12巷75號,南港區,研究院路,115,(02)27871451,391X11
409,臺北市私立欣苗幼兒園,121.61392190000001,25.046961399999997,臺北市南港區中研里24鄰研究院路2段12巷58弄9號,南港區,研究院路,115,(02)27823322,391X13
410,臺北市私立東美幼兒園,121.6035801,25.056467899999998,臺北市南港區東新里8鄰興南街52巷,南港區,興南街,115,(02)27868833,391X14
411,臺北市私立大大樹幼兒園,121.58180800000001,25.0468829,臺北市南港區合成里8鄰玉成街,南港區,玉成街,115,(02)27851516,391X16
412,臺北市港福非營利幼兒園(委託中華學校財團法人辦理),121.5915412,25.0390676,臺北市南港區仁福里6鄰福德街373巷43號,南港區,福德街,115,(02)26543767,391X1A
413,臺北市私立惠群幼兒園,121.61873759999999,25.041942199999998,臺北市南港區舊莊里24鄰合順街8巷5弄5號,南港區,合順街,115,(02)26511256,391X1C
414,世平興業股份有限公司附設臺北市私立員工子女幼兒園,121.59293799999999,25.054792000000003,臺北市南港區西新里8鄰成功路一段,南港區,成功路,115,(02)26530137,391X1E
415,臺北市私立新莒光幼兒園,121.61599,25.046389,臺北市南港區中研里3鄰研究院路2段35巷13號,南港區,研究院路,115,(02)26510502,391X1F
416,臺北市私立欣苗寶貝幼兒園,121.6142054,25.0471318,臺北市南港區中研里22鄰研究院路二段34巷15號,南港區,研究院路,115,(02)27823322,391X1J
417,財團法人國光慈善事業基金會附設臺北市私立三軍幼兒園,121.60168940000001,25.053547299999998,臺北市南港區東明里5鄰南港路二段146號,南港區,南港路,115,(02)27858410#27,391X1P
418,臺北市私立何嘉仁南港幼兒園,121.6061096,25.0551052,臺北市南港區東明里15鄰興華路,南港區,興華路,115,(02)27890198,391X1Q
419,臺北市私立南光幼兒園,121.6186738,25.0435362,臺北市南港區中研里12鄰研究院路二段61巷2弄41號,南港區,研究院路,115,(02)27823329,391X1W
420,臺北市立南港高級中學教師會附設臺北市私立員工子女幼兒園,121.595026,25.052412,臺北市南港區西新里3鄰向陽路21號,南港區,向陽路,115,(02)27837863#297,391X1X
421,臺北市私立甘霖幼兒園,121.6057656,25.0544091,臺北市南港區東明里16鄰南港路二段,南港區,南港路,115,(02)27826308,391X1Z
422,臺北市私立吉的堡小騎士幼兒園,121.588521,25.041012,臺北市南港區成福里30鄰成福路183號,南港區,成福路,115,(02)26516526,391X23
423,臺北市私立達芬奇多元智能幼兒園,121.60580159999998,25.055183399999997,臺北市南港區東明里15鄰興華路32號,南港區,興華路,115,(02)27881098,391X28
424,臺北市私立龍華幼兒園,121.585842,25.0429285,臺北市南港區鴻福里12鄰玉成街247號,南港區,玉成街,115,(02)27867166,391X29
425,臺北市私立大方凌雲幼兒園,121.6161128,25.0363202,臺北市南港區九如里12鄰研究院路三段2巷,南港區,研究院路,115,(02)27820190,391X2B
426,臺北市私立櫻之圓蒙特梭利幼兒園,121.5649832,25.084400199999997,臺北市內湖區西康里24鄰環山路1段24巷10號,內湖區,環山路,114,(02)87975200,401K01
427,臺北市私立快樂幼兒園,121.60571750000001,25.071882100000003,臺北市內湖區南湖里4鄰民權東路6段280巷8號,內湖區,民權東路,114,(02)26311292,401K02
428,臺北市私立華盛頓幼兒園,121.5769946,25.0753057,臺北市內湖區港墘里18鄰瑞光路271號,內湖區,瑞光路,114,(02)26576155,401K03
429,臺北市私立英格幼兒園,121.59260330000001,25.0678043,臺北市內湖區寶湖里14鄰民權東路六段180巷,內湖區,民權東路,114,(02)2791-1809,401K04
430,遊戲橘子數位科技股份有限公司附設臺北市私立員工子女幼橘園幼兒園,121.5747692,25.073838100000003,臺北市內湖區港墘里20鄰港墘路221巷33號,內湖區,港墘路,114,(02)26589690,401K05
431,臺北市私立小綠山森林幼兒園,121.601242,25.0847069,臺北市內湖區金湖里8鄰成功路五段,內湖區,成功路,114,(02)26307030,401K06
432,臺北市私立諾貝爾金湖幼兒園,121.6047845,25.0733248,臺北市內湖區葫洲里10鄰金湖路419號,內湖區,金湖路,114,(02)26330368,401K07
433,臺北市私立諾貝爾內湖幼兒園,121.604724,25.073290399999998,臺北市內湖區葫洲里10鄰金湖路417號,內湖區,金湖路,114,(02)26330368,401K08
434,臺北市三民亦禮非營利幼兒園（委託財團法人中華民國唐氏症基金會辦理）,121.58640729999999,25.069154,臺北市內湖區湖興里13鄰民權東路六段45號,內湖區,民權東路,114,(02)2796-8321,401K09
435,臺北市私立華泰種子幼兒園,121.602162,25.084769,臺北市內湖區大湖里1鄰大湖山莊街97號,內湖區,大湖山莊街,114,(02)27928359,401K0A
436,臺北市私立湖畔小百合蒙特梭利幼兒園,121.6003372,25.087477,臺北市內湖區大湖里1鄰大湖山莊街85號,內湖區,大湖山莊街,114,(02)27946033,401K0B
437,臺北市西中非營利幼兒園(委託財團法人靖娟兒童安全文教基金會辦理),121.56607749999999,25.085462699999997,臺北市內湖區西湖里2鄰環山路一段27號,內湖區,環山路,114,(02)2797-0700,401K0C
438,臺北市私立塞凡提凱旋幼兒園,121.60786499999999,25.070464,臺北市內湖區葫洲里10鄰民權東路六段296巷61號,內湖區,民權東路,114,(02)26324058,401K0D
439,臺北市私立卡爾蒙特梭利幼兒園,121.6161065,25.0706134,臺北市內湖區東湖里17鄰東湖路113巷50之1號,內湖區,東湖路,114,(02)26340919,401K0F
440,臺北市私立心惠幼兒園,121.57869240000001,25.0816034,臺北市內湖區港富里7鄰麗山街62巷18弄,內湖區,麗山街,114,(02)26270022,401X01
441,臺北市私立立湖幼兒園,121.586171,25.08801,臺北市內湖區金瑞里9鄰金龍路222巷1弄1號,內湖區,金龍路,114,(02)27902228,401X04
442,臺北市私立華泰幼兒園,121.602448,25.0845639,臺北市內湖區大湖里1鄰大湖山莊街21巷2號,內湖區,大湖山莊街,114,(02)27928335,401X07
443,臺北市私立華泰幼兒園,121.602448,25.0845639,臺北市內湖區大湖里1鄰大湖山莊街21巷2號,內湖區,大湖山莊街,114,(02)27928335,401X07
444,臺北市私立文心幼兒園,121.59205779999999,25.078364999999998,臺北市內湖區紫星里19鄰星雲街68巷,內湖區,星雲街,114,(02)27902507,401X09
445,臺北市私立民祥幼兒園,121.5735858,25.0825139,臺北市內湖區港都里13鄰麗山街338巷,內湖區,麗山街,114,(02)27986739,401X11
446,臺北市私立幼新幼兒園,121.5896053,25.067328,臺北市內湖區湖興里19鄰成功路二段312巷,內湖區,成功路,114,(02)27916362,401X15
447,臺北市私立幼新幼兒園,121.5896053,25.067328,臺北市內湖區湖興里19鄰成功路二段312巷,內湖區,成功路,114,(02)27916362,401X15
448,臺北市私立東湖幼兒園,121.61905159999998,25.0694099,臺北市內湖區樂康里5鄰康樂街85巷,內湖區,康樂街,114,(02)26310351,401X16
449,臺北市私立奧斯福爾幼兒園,121.608427,25.071406,臺北市內湖區葫洲里23鄰康寧路三段16巷53號,內湖區,康寧路,114,(02)26340258#192,401X18
450,臺北市私立喬治亞幼兒園,121.5889172,25.081519699999998,臺北市內湖區湖濱里9鄰內湖路二段334之1號,內湖區,內湖路,114,(02)27901110,401X19
451,臺北市私立美敦幼兒園,121.5735088,25.0810674,臺北市內湖區麗山里5鄰內湖路一段591巷11弄,內湖區,內湖路,114,(02)26270758,401X25
452,臺北市私立山谷小百合蒙特梭利幼兒園,121.6127477,25.070542899999996,臺北市內湖區明湖里17鄰康寧路三段189巷,內湖區,康寧路,114,(02)26315887,401X2A
453,臺北市私立卡爾維德幼兒園,121.6076658,25.0719116,臺北市內湖區葫洲里5鄰康寧路三段16巷35號,內湖區,康寧路,114,(02)26348514,401X2B
454,臺北市私立康大幼兒園,121.6183077,25.0682005,臺北市內湖區樂康里17鄰康樂街,內湖區,康樂街,114,(02)26330175,401X2E
455,臺北市私立小瓢蟲幼兒園,121.59151059999999,25.0787485,臺北市內湖區紫星里7鄰星雲街35號,內湖區,星雲街,114,(02)27920986,401X2T
456,臺北市私立內湖科見幼兒園,121.606398,25.0736867,臺北市內湖區金湖里15鄰成功路五段460號,內湖區,成功路,114,(02)26348876,401X2V
457,臺北市私立聖安幼兒園,121.606494,25.071889000000002,臺北市內湖區葫洲里11鄰民權東路六段296巷69號,內湖區,民權東路,114,(02)26329810,401X34
458,臺北市私立麻雀素食幼兒園,121.61988840000001,25.074220699999998,臺北市內湖區內溝里12鄰康樂街141之2號,內湖區,康樂街,114,(02)26315918,401X39
459,臺北市私立諾貝爾幼兒園,121.605772,25.074132000000002,臺北市內湖區金湖里10鄰金湖路415號,內湖區,金湖路,114,(02)26330368,401X3D
460,臺北市私立塞凡提甜心幼兒園,121.61277920000002,25.070953699999997,臺北市內湖區明湖里17鄰康寧路3段189巷42號,內湖區,康寧路,114,(02)26331385,401X3G
461,臺北市私立華泰大湖幼兒園,121.602448,25.0845639,臺北市內湖區大湖里1鄰大湖山莊街21巷2號,內湖區,大湖山莊街,114,(02)27928335,401X3H
462,臺北市私立華泰大湖幼兒園,121.602448,25.0845639,臺北市內湖區大湖里1鄰大湖山莊街21巷2號,內湖區,大湖山莊街,114,(02)27928335,401X3H
463,臺北市私立塞凡提幼兒園,121.6062978,25.071757100000003,臺北市內湖區葫洲里10鄰民權東路六段296巷31弄4號,內湖區,民權東路,114,(02)26312809,401X3L
464,臺北市私立聖育幼兒園,121.59214640000002,25.087341199999997,臺北市內湖區碧山里12鄰內湖路三段60巷,內湖區,內湖路,114,(02)27909417,401X3T
465,臺北市私立聖喬治幼兒園,121.60595520000001,25.0723548,臺北市內湖區葫洲里15鄰民權東路六段296巷,內湖區,民權東路,114,(02)26337996,401X3U
466,臺北市私立陽光森林麗湖幼兒園,121.5806753,25.081970499999997,臺北市內湖區湖濱里1鄰內湖路二段103巷48號,內湖區,內湖路,114,(02)27997707,401X3X
467,臺北市私立潭美幼兒園,121.61692649999999,25.067575199999997,臺北市內湖區五分里10鄰東湖路160巷10弄,內湖區,東湖路,114,(02)26319070,401X44
468,臺北市私立保進幼兒園,121.61967150000001,25.069021300000003,臺北市內湖區樂康里5鄰康樂街61巷15弄1號,內湖區,康樂街,114,(02)26332111,401X45
469,臺北市私立優幼園幼兒園,121.5915801,25.0819766,臺北市內湖區內湖里15鄰成功路四段30巷11號,內湖區,成功路,114,(02)27922182,401X4G
470,臺北市私立惠登幼兒園,121.6130749,25.0714464,臺北市內湖區明湖里17鄰康寧路三段189巷52號,內湖區,康寧路,114,(02)26335935,401X4H
471,臺北市私立融恩幼兒園,121.5959663,25.0833641,臺北市內湖區清白里19鄰金湖路16之11號,內湖區,金湖路,114,(02)87919961,401X4K
472,臺北市私立咪咪幼兒園,121.58241129999999,25.076401899999997,臺北市內湖區瑞陽里10鄰文德路66巷69弄30號,內湖區,文德路,114,(02)26576881,401X4R
473,臺北市私立勁寶兒文德幼兒園,121.582355,25.079442999999998,臺北市內湖區港富里30鄰內湖路二段130號,內湖區,內湖路,114,(02)26598109,401X4U
474,臺北市私立明昶幼兒園,121.61072250000001,25.0723528,臺北市內湖區明湖里3鄰康寧路3段99巷10弄6號,內湖區,康寧路,114,(02)26323564,401X4Y
475,臺北市私立家田幼兒園,121.59944750000001,25.0832428,臺北市內湖區秀湖里7鄰大湖街158巷2之3號,內湖區,大湖街,114,(02)87918587,401X4Z
476,臺北市私立廣教幼兒園,121.59203799999999,25.079266,臺北市內湖區紫星里21鄰成功路三段187巷35弄2號,內湖區,成功路,114,(02)27930308,401X50
477,臺北市私立柏克萊幼兒園,121.6016791,25.073450100000002,臺北市內湖區金湖里3鄰金湖路363巷17號,內湖區,金湖路,114,(02)26333002,401X51
478,臺北市康寧非營利幼兒園（委託財團法人幼兒教育基金會辦理）,121.61131200000001,25.0731591,臺北市內湖區康寧里18鄰康寧路三段189巷93弄18號,內湖區,康寧路,114,(02)26319818,401X52
479,臺北市私立幼欣幼兒園,121.5896053,25.067328,臺北市內湖區湖興里19鄰成功路二段312巷,內湖區,成功路,114,(02)27918852,401X55
480,臺北市私立幼欣幼兒園,121.5896053,25.067328,臺北市內湖區湖興里19鄰成功路二段312巷,內湖區,成功路,114,(02)27918852,401X55
481,臺北市私立大湖寶貝幼兒園,121.6010155,25.084119,臺北市內湖區秀湖里2鄰大湖街166巷10號,內湖區,大湖街,114,(02)27921959,401X57
482,臺北市新東湖非營利幼兒園(委託社團法人台北市幼兒園協會辦理),121.61838780000001,25.0704268,臺北市內湖區東湖里10鄰康樂街110巷16弄22號,內湖區,康樂街,114,(02)26327828,401X59
483,臺北市新東湖非營利幼兒園(委託社團法人台北市幼兒園協會辦理),121.61838780000001,25.0704268,臺北市內湖區東湖里10鄰康樂街110巷16弄22號,內湖區,康樂街,114,(02)26327828,401X59
484,臺北市私立多元智慧幼兒園,121.58241129999999,25.076401899999997,臺北市內湖區瑞陽里27鄰文德路90巷39號,內湖區,文德路,114,(02)26598800,401X5A
485,臺北市私立恩貝亞幼兒園,121.5991892,25.0792397,臺北市內湖區紫雲里18鄰金湖路179號,內湖區,金湖路,114,(02)27916484,401X5G
486,臺北市私立嘉霙幼兒園,121.584078,25.075149,臺北市內湖區紫陽里18鄰陽光街116號,內湖區,陽光街,114,(02)26278523,401X5L
487,臺北市私立來來幼兒園,121.60763229999999,25.0707282,臺北市內湖區葫洲里7鄰民權東路六段280巷50號,內湖區,民權東路,114,(02)26325432,401X5N
488,臺北市私立巧可麗查理布朗幼兒園,121.5904058,25.081129699999998,臺北市內湖區湖濱里30鄰成功路三段174巷10號,內湖區,成功路,114,(02)87926411,401X5P
489,臺北市私立凱菲林幼兒園,121.60980239999999,25.0712859,臺北市內湖區葫洲里12鄰康寧路三段54之5號,內湖區,康寧路,114,(02)26346557,401X5Q
490,社團法人臺北市幼托協會附設臺北市私立星雲非營利幼兒園（臺北市政府委託辦理）,121.596101,25.0811491,臺北市內湖區清白里4鄰星雲街161巷3號,內湖區,星雲街,114,(02)87918776,401X5S
491,財團法人福智文教基金會附設臺北市私立妙善非營利幼兒園（臺北市政府委託辦理）,121.57675420000001,25.056245399999998,臺北市內湖區行善里18鄰行善路25巷13號,內湖區,行善路,114,(02)27921389,401X5U
492,財團法人福智文教基金會附設臺北市私立妙善非營利幼兒園（臺北市政府委託辦理）行善分班,121.57630790000002,25.0558354,臺北市內湖區行善里21鄰行善路25巷11號,內湖區,行善路,114,(02)2792-1389,401X5U-01
493,財團法人福智文教基金會附設臺北市私立妙善非營利幼兒園（臺北市政府委託辦理）潭美分班,121.5814098,25.059345800000003,臺北市內湖區週美里21鄰行善路179號,內湖區,行善路,114,(02)2790-6877,401X5U-02
494,恕德學校財團法人附設臺北市私立恕德幼兒園,121.5691848,25.082331600000003,臺北市內湖區西湖里1鄰內湖路一段353號,內湖區,內湖路,114,(02)27997608,401X5W
495,臺北市私立小百合蒙特梭利幼兒園,121.59150770000001,25.078666600000002,臺北市內湖區紫星里7鄰星雲街37號,內湖區,星雲街,114,(02)27946751,401X60
496,臺北市私立柏克立幼兒園,121.6009262,25.0733493,臺北市內湖區金湖里2鄰金湖路363巷45號,內湖區,金湖路,114,(02)26347688,401X62
497,臺北市私立森林學館幼兒園,121.58650800000001,25.0760979,臺北市內湖區紫陽里12鄰陽光街65號,內湖區,陽光街,114,(02)26577679,401X64
498,臺北市私立國際蒙特梭利內湖幼兒園,121.60127800000001,25.083559,臺北市內湖區秀湖里2鄰大湖街166巷18號,內湖區,大湖街,114,(02)27902950,401X66
499,康軒文教事業股份有限公司附設臺北市私立員工子女幼兒園,121.58241129999999,25.076401899999997,臺北市內湖區瑞陽里8鄰文德路66巷99號,內湖區,文德路,114,(02)27990099,401X67
500,臺北市私立小小百合蒙特梭利幼兒園,121.59699669999999,25.0809452,臺北市內湖區西湖里2鄰星雲街38號,內湖區,星雲街,114,(02)27937756,401X69
501,臺北市私立何嘉仁新湖幼兒園,121.588949,25.06929,臺北市內湖區湖興里27鄰民權東路6段196號,內湖區,民權東路,114,(02)27922776,401X6A
502,臺北市私立小荳荳幼兒園,121.59155849999999,25.0682799,臺北市內湖區寶湖里13鄰民權東路六段172號,內湖區,民權東路,114,(02)27937710,401X6B
503,臺北市私立夢想幼兒園,121.58394960000001,25.0778337,臺北市內湖區紫陽里19鄰文德路210巷8之3號,內湖區,文德路,114,(02)27986455,401X6C
504,臺北市私立卡爾維德蒙特梭利幼兒園,121.61605279999999,25.070752600000002,臺北市內湖區東湖里17鄰東湖路113巷50號,內湖區,東湖路,114,(02)26335356,401X6F
505,臺北市私立精采童年幼兒園,121.52641259999999,25.1204361,臺北市士林區天玉里18鄰天母北路42之2號,士林區,天母北路,111,(02)28717230,411K01
506,臺北市私立太和蒙特梭利幼兒園,121.5264565,25.110481399999998,臺北市士林區蘭雅里15鄰中山北路六段290巷7弄7號,士林區,中山北路,111,(02)28366268,411K02
507,臺北市天母非營利幼兒園（委託社團法人台北市幼兒園協會辦理）,121.5275331,25.1197914,臺北市士林區天玉里3鄰天玉街12號,士林區,天玉街,111,(02)28772327,411K03
508,臺北市天母非營利幼兒園（委託社團法人台北市幼兒園協會辦理）,121.5280957,25.1200102,臺北市士林區天玉里3鄰天玉街12號,士林區,天玉街,111,(02)28772327,411K03
509,臺北市私立道思幼兒園,121.5268889,25.1214874,臺北市士林區天玉里20鄰天母北路61號,士林區,天母北路,111,(02)28731515,411K04
510,臺北市私立微笑音符幼兒園,121.53409979999999,25.101485500000003,臺北市士林區岩山里8鄰至誠路1段148號,士林區,至誠路,111,(02)88666629,411K05
511,臺北市新三玉非營利幼兒園(委託財團法人毛毛蟲兒童哲學基金會辦理),121.5372679,25.117860699999998,臺北市士林區三玉里1鄰天母東路116號,士林區,天母東路,111,(02)28742988,411K06
512,臺北市泰北非營利幼兒園(委託財團法人三之三生命教育基金會辦理),121.533898,25.097375,臺北市士林區福林里3鄰福林路240號,士林區,福林路,111,(02)28828633,411K07
513,臺北市私立幼心幼兒園,121.52289590000001,25.0938139,臺北市士林區福德里7鄰中正路335巷18號,士林區,中正路,111,(02)28815581,411X02
514,臺北市私立忠義幼兒園,121.5280429,25.111414,臺北市士林區蘭雅里10鄰士東路54巷,士林區,士東路,111,(02)28310788,411X03
515,臺北市私立博仁幼兒園,121.52546809999998,25.1145537,臺北市士林區天壽里9鄰中山北路六段405巷,士林區,中山北路,111,(02)28723567,411X06
516,臺北市私立德行幼兒園,121.5264655,25.1095277,臺北市士林區蘭雅里24鄰中山北路6段290巷,士林區,中山北路,111,(02)28368002,411X07
517,臺北市私立育強幼兒園,121.5097112,25.0896858,臺北市士林區社子里18鄰社正路45巷12號,士林區,社正路,111,(02)28128829,411X10
518,財團法人臺灣聖公會附設臺北市私立牧愛堂幼兒園,121.51759960000001,25.0914271,臺北市士林區後港里16鄰中正路509號,士林區,中正路,111,(02)28823460,411X13
519,臺北市私立欣光幼兒園,121.51850420000001,25.084423899999997,臺北市士林區百齡里14鄰福港街259巷4號,士林區,福港街,111,(02)28822302,411X15
520,臺北市私立何嘉仁幼兒園,121.5094379,25.084151300000002,臺北市士林區葫蘆里7鄰延平北路五段231巷1號,士林區,延平北路,111,(02)28128097,411X19
521,臺北市私立泰安幼兒園,121.52540990000001,25.1021285,臺北市士林區德行里4鄰中山北路五段,士林區,中山北路,111,(02)28314281,411X23
522,臺北市私立正音幼兒園,121.539892,25.1122,臺北市士林區東山里13鄰東山路135號,士林區,東山路,111,(02)28364687,411X29
523,臺北市私立多多種子幼兒園,121.5092206,25.084695899999996,臺北市士林區葫蘆里8鄰延平北路五段245巷,士林區,延平北路,111,(02)28122563,411X30
524,臺北市私立民華幼兒園,121.519622,25.0882949,臺北市士林區福中里1鄰華齡街211號,士林區,華齡街,111,(02)28823000,411X35
525,臺北市私立育成幼兒園,121.5214135,25.0799905,臺北市士林區明勝里10鄰承德路四段12巷,士林區,承德路,111,(02)28858002,411X36
526,臺北市私立十大幼兒園,121.5360031,25.1180473,臺北市士林區三玉里6鄰天母東路92號,士林區,天母東路,111,(02)28749113,411X39
527,臺北市私立奧爾仕幼兒園,121.5498091,25.1004265,臺北市士林區臨溪里1鄰至善路二段1之1號,士林區,至善路,111,(02)28807531,411X41
528,財團法人林迺翁文教基金會附設臺北市私立天鵝堡幼兒園,121.55198500000002,25.100628,臺北市士林區臨溪里8鄰至善路2段280之1號,士林區,至善路,111,(02)28411618,411X43
529,臺北市私立浩恩幼兒園,121.53291940000001,25.1062225,臺北市士林區岩山里10鄰忠義街91巷,士林區,忠義街,111,(02)28359964,411X45
530,臺北市私立飛達幼兒園,121.50271000000001,25.0899325,臺北市士林區永倫里1鄰延平北路六段210號,士林區,延平北路,111,(02)28113351,411X4C
531,臺北市三玉非營利幼兒園（委託社團法人台北市幼兒園協會辦理）,121.5323988,25.1114866,臺北市士林區三玉里14鄰忠誠路二段53巷7號,士林區,忠誠路,111,(02)88661016,411X4F
532,臺北市三玉非營利幼兒園（委託社團法人台北市幼兒園協會辦理）,121.5323988,25.1114866,臺北市士林區三玉里14鄰忠誠路二段53巷7號,士林區,忠誠路,111,(02)88661016,411X4F
533,臺北市私立天母蒙特梭利幼兒園,121.52518700000002,25.120009,臺北市士林區天玉里12鄰天母西路95巷21號,士林區,天母西路,111,(02)28728454,411X4O
534,臺北市私立心愛幼兒園,121.537273,25.12631,臺北市士林區天母里1鄰中山北路七段190巷104號,士林區,中山北路,111,(02)28739393,411X4R
535,臺北市私立敦品幼兒園,121.53138270000001,25.108165,臺北市士林區聖山里9鄰忠誠路一段173巷13號,士林區,忠誠路,111,(02)28366464,411X4V
536,臺北市私立幼天才幼兒園,121.518478,25.0885621,臺北市士林區福中里3鄰福港街107巷,士林區,福港街,111,(02)28802380,411X4X
537,臺北市私立有緣蒙特梭利幼兒園,121.5294466,25.109362899999997,臺北市士林區蘭興里7鄰忠誠路2段32巷11號,士林區,忠誠路,111,(02)28320290,411X53
538,臺北市私立博如幼兒園,121.5325508,25.101285600000004,臺北市士林區名山里1鄰雙溪街,士林區,雙溪街,111,(02)28339854,411X59
539,臺北市私立翰諾幼兒園,121.5278648,25.109541600000004,臺北市士林區蘭雅里20鄰德行東路61巷4號,士林區,德行東路,111,(02)28362424,411X5B
540,臺北市私立慈暉幼兒園,121.50598959999999,25.0912671,臺北市士林區社園里24鄰永平街46巷3弄,士林區,永平街,111,(02)28113589,411X5G
541,臺北市私立愛樂芬幼兒園,121.5067261,25.087819399999997,臺北市士林區社新里21鄰社子街63巷8號,士林區,社子街,111,(02)88111313,411X5I
542,臺北市私立求真幼兒園,121.51635,25.0872079,臺北市士林區福中里8鄰通河東街一段136巷,士林區,通河東街,111,(02)28828069,411X5J
543,臺北市私立熊寶貝幼兒園,121.52731200000001,25.110613,臺北市士林區蘭雅里18鄰士東路46巷26號,士林區,士東路,111,(02)28363868,411X5N
544,臺北市私立華邇街幼兒園,121.527101,25.110014000000003,臺北市士林區蘭雅里14鄰中山北路六段290巷7弄8號,士林區,中山北路,111,(02)28363379,411X5P
545,臺北市私立凱斯幼兒園,121.52319920000001,25.087929000000003,臺北市士林區義信里12鄰承德路四段179巷7號,士林區,承德路,111,(02)88611866,411X5R
546,臺北市私立社中幼兒園,121.5025544,25.0919595,臺北市士林區永倫里15鄰社中街424號,士林區,社中街,111,(02)28126797,411X5S
547,臺北市私立幼安幼兒園,121.50635919999999,25.0917799,臺北市士林區社園里6鄰社中街231巷27號,士林區,社中街,111,(02)88115787,411X5W
548,臺北市私立何嘉仁士林幼兒園,121.529124,25.096301,臺北市士林區福志里18鄰中正路116號,士林區,中正路,111,(02)28327663,411X64
549,臺北市私立比特幼兒園,121.50338799999999,25.092025399999997,臺北市士林區永倫里11鄰社中街381號,士林區,社中街,111,(02)88111398,411X66
550,臺北市私立怡寶幼兒園,121.52756380000001,25.1034691,臺北市士林區名山里19鄰中山北路六段2巷33號,士林區,中山北路,111,(02)28364720,411X68
551,臺北市私立孩子國幼兒園,121.5224604,25.0879046,臺北市士林區義信里12鄰承德路四段185號,士林區,承德路,111,(02)28881541,411X6D
552,臺北市私立淘兒園幼兒園,121.52315300000001,25.081514000000002,臺北市士林區德行里17鄰承德路四段57號,士林區,承德路,111,(02)28861858,411X6I
553,臺北市私立博如日本幼兒幼兒園,121.5236238,25.1093493,臺北市士林區蘭興里13鄰克強路10巷9弄,士林區,克強路,111,(02)28340473,411X6J
554,臺北市私立怡寶資優幼兒園,121.527817,25.103544,臺北市士林區名山里19鄰中山北路六段2巷39號,士林區,中山北路,111,(02)28364720,411X6P
555,臺北市私立種籽幼兒園,121.52642,25.110286,臺北市士林區蘭雅里14鄰中山北路六段290巷11弄3號,士林區,中山北路,111,(02)28315266,411X6R
556,臺北市私立師達幼兒園,121.5300655,25.112781,臺北市士林區天祿里3鄰士東路91巷26弄12號,士林區,士東路,111,(02)28718869,411X6S
557,臺北市私立好來幼兒園,121.5331551,25.127610600000004,臺北市士林區天母里14鄰中山北路七段225之1號,士林區,中山北路,111,(02)28718696,411X6U
558,臺北市私立道爾敦幼兒園,121.53330700000001,25.126981,臺北市士林區天母里5鄰中山北路七段224號,士林區,中山北路,111,(02)28730225,411X72
559,臺北市私立捷森幼兒園,121.52731200000001,25.120732999999998,臺北市士林區三玉里13鄰天玉街15號,士林區,天玉街,111,(02)28741177,411X7A
560,臺北市私立日晴幼兒園,121.5177486,25.0871572,臺北市士林區福中里10鄰福港街158號,士林區,福港街,111,(02)28882210,411X7C
561,臺北市葫蘆非營利幼兒園（委託社團法人台灣公共托育協會辦理）,121.51078159999999,25.0823049,臺北市士林區福順里15鄰延平北路5段136巷1號,士林區,延平北路,111,(02)28151220,411X7D
562,臺北市私立沐恩蒙特梭利幼兒園,121.53374840000002,25.1195516,臺北市士林區天山里3鄰天母東路69巷11之5號,士林區,天母東路,111,(02)28765636,411X7E
563,臺北市私立弘明幼兒園,121.5331535,25.122071899999998,臺北市士林區天山里12鄰中山北路7段114巷11號,士林區,中山北路,111,(02)28726200,411X7H
564,臺北市私立太和騰幼兒園,121.50516809999999,25.08931,臺北市士林區社新里15鄰延平北路6段227號,士林區,延平北路,111,(02)28129958,411X7I
565,臺北市私立星莆幼兒園,121.5097006,25.087698800000002,臺北市士林區社園里26鄰社中街,士林區,社中街,111,(02)28126386,411X7J
566,臺北市私立佳嬰幼兒園,121.52555320000002,25.0918182,臺北市士林區仁勇里12鄰大東路126號,士林區,大東路,111,(02)28807575,411X7K
567,臺北市私立城市國際幼兒園,121.468879,25.133617,臺北市北投區一德里14鄰學園路2號,北投區,學園路,112,(02)2893-2155,421K01
568,臺北市私立國際蒙特梭利北投幼兒園,121.505455,25.135975,臺北市北投區長安里18鄰光明路226-1號,北投區,光明路,112,(02)28949605,421K02
569,臺北市私立愛德恩幼兒園,121.52279640000002,25.121454500000002,臺北市北投區永欣里13鄰石牌路二段303號,北投區,石牌路,112,(02)28721955,421K03
570,臺北市私立薇閣國民小學附設幼兒園,121.5036265,25.1386737,臺北市北投區中心里11鄰珠海路50號,北投區,珠海路,112,(02)28911066,421X02
571,臺北市私立新成功幼兒園,121.50941100000001,25.1151664,臺北市北投區吉慶里9鄰實踐街54號,北投區,實踐街,112,(02)28286318,421X06
572,財團法人天主教會台北教區附設臺北市私立達義幼兒園,121.5146955,25.1121091,臺北市北投區榮光里12鄰致遠一路2段40巷11號,北投區,致遠一路,112,(02)28270668,421X07
573,財團法人臺灣基督長老教會雙連教會附設臺北市私立雙連幼兒園,121.5059423,25.114918300000003,臺北市北投區立賢里4鄰承德路7段221號,北投區,承德路,112,(02)28228444,421X08
574,臺北市私立旭東幼兒園,121.4948967,25.145588800000002,臺北市北投區秀山里2鄰中和街446巷56號,北投區,中和街,112,(02)28913311,421X11
575,臺北市私立橘子蒙特梭利幼兒園,121.46835779999999,25.1216667,臺北市北投區關渡里6鄰知行路292巷,北投區,知行路,112,(02)28584990,421X12
576,臺北市私立奎山中學附設幼兒園,121.52230279999999,25.112998,臺北市北投區榮華里13鄰明德路200號,北投區,明德路,112,(02)28212009#11,421X17
577,臺北市私立一德幼兒園,121.5212236,25.1097407,臺北市北投區榮華里16鄰明德路136巷9號,北投區,明德路,112,(02)28215755,421X20
578,臺北市私立潘蜜拉幼兒園,121.4997371,25.1437423,臺北市北投區中和里12鄰大屯路21巷21號,北投區,大屯路,112,(02)28921534,421X23
579,臺北市私立培爾幼兒園,121.50026000000001,25.14445,臺北市北投區中和里15鄰大屯路31巷15號,北投區,大屯路,112,(02)28946256,421X24
580,臺北市私立皇家幼兒園,121.524014,25.1131179,臺北市北投區榮華里9鄰榮華二路9號,北投區,榮華二路,112,(02)28220869,421X25
581,臺北市私立道生幼兒園,121.4844614,25.139704899999998,臺北市北投區桃源里12鄰中央北路三段188號,北投區,中央北路,112,(02)28922691,421X27
582,臺北市私立桃樂絲幼兒園,121.50447140000001,25.1320954,臺北市北投區溫泉里5鄰民族街12號,北投區,民族街,112,(02)28930381,421X28
583,臺北市吉利非營利幼兒園(委託社團法人台北市親子成長協會辦理),121.505032,25.119493,臺北市北投區立農里25鄰立農街一段366號,北投區,立農街,112,(02)28200118,421X2E
584,臺北市吉利非營利幼兒園(委託社團法人台北市親子成長協會辦理),121.505032,25.119493,臺北市北投區立農里25鄰立農街一段366號,北投區,立農街,112,(02)28200118,421X2E
585,臺北市私立丹佛幼兒園,121.52534909999999,25.123385100000004,臺北市北投區永欣里11鄰石牌路二段358之1號,北投區,石牌路,112,(02)28721955,421X2G
586,臺北市私立天華幼兒園,121.5021491,25.1316056,臺北市北投區清江里1鄰清江路25巷7號,北投區,清江路,112,(02)28945685,421X2I
587,臺北市私立心美蒙特梭利幼兒園,121.5134937,25.1181015,臺北市北投區永明里12鄰東華街二段92號,北投區,東華街,112,(02)28205120,421X2K
588,臺北市私立晴晴幼兒園,121.5159,25.109973999999998,臺北市北投區石牌里8鄰致遠一路一段104巷19號,北投區,致遠一路,112,(02)28239652,421X2L
589,臺北市私立正大幼兒園,121.51533229999998,25.1169473,臺北市北投區永明里7鄰義理街49巷,北投區,義理街,112,(02)28229788,421X2Q
590,臺北市私立新天地幼兒園,121.47799669999999,25.135154800000002,臺北市北投區一德里2鄰中央北路4段32號,北投區,中央北路,112,(02)28960707,421X2S
591,臺北市私立新茗幼兒園,121.51453729999999,25.1189445,臺北市北投區東華里17鄰立農街二段257之1號,北投區,立農街,112,(02)28216602,421X2T
592,臺北市私立石牌旭東幼兒園,121.5108053,25.114798,臺北市北投區吉慶里18鄰實踐街82巷14號,北投區,實踐街,112,(02)28272210,421X2U
593,臺北市私立米蘿幼兒園,121.4965074,25.1371562,臺北市北投區文化里3鄰文化三路12號,北投區,文化三路,112,(02)28967027,421X2W
594,臺北市私立艾法貝納幼兒園,121.5264784,25.124277499999998,臺北市北投區永欣里18鄰行義路10巷2號,北投區,行義路,112,(02)28769011,421X2X
595,臺北市私立何嘉仁北投幼兒園,121.488557,25.138252899999998,臺北市北投區豐年里15鄰中央北路二段335之2號,北投區,中央北路,112,(02)28943222,421X2Y
596,臺北市私立凱薩琳幼兒園,121.5073132,25.124816600000003,臺北市北投區奇岩里24鄰公館路279巷2號,北投區,公館路,112,(02)28916098,421X2Z
597,臺北市私立發現蒙特梭利幼兒園,121.51886189999999,25.105699899999998,臺北市北投區建民里6鄰文林北路80巷90弄41號,北投區,文林北路,112,(02)28232092,421X30
598,臺北市私立華民幼兒園,121.52534909999999,25.123385100000004,臺北市北投區永欣里11鄰石牌路二段358號,北投區,石牌路,112,(02)28732423,421X31
599,臺北市私立育奇幼兒園,121.49945600000001,25.137655,臺北市北投區中庸里13鄰大同街200巷1號,北投區,大同街,112,(02)28911899,421X34
600,臺北市私立藍天幼兒園,121.4983331,25.1432746,臺北市北投區中和里8鄰中和街392號,北投區,中和街,112,(02)28963620,421X35
601,臺北市私立資優兒幼兒園,121.51886189999999,25.105699899999998,臺北市北投區建民里8鄰文林北路80巷38弄10號,北投區,文林北路,112,(02)28231799,421X36
602,臺北市私立資優兒童幼兒園,121.497929,25.135391000000002,臺北市北投區大同里5鄰中央北路一段179巷1號,北投區,中央北路,112,(02)28949838,421X38
603,臺北市私立德美蒙特梭利幼兒園,121.5147243,25.116214000000003,臺北市北投區永明里12鄰東華街二段,北投區,東華街,112,(02)28205120,421X3A
604,臺北市私立采郁蒙特梭利幼兒園,121.4678015,25.126537300000003,臺北市北投區一德里19鄰中央北路四段577巷27弄1號,北投區,中央北路,112,(02)28978840,421X3C
605,臺北市私立北投青青幼兒園,121.5057111,25.1357869,臺北市北投區長安里19鄰溫泉路73巷5號,北投區,溫泉路,112,(02)28965006,421X3D
606,臺北市私立優格快樂幼兒園,121.52318700000001,25.122894,臺北市北投區永欣里14鄰石牌路二段315巷10弄10號,北投區,石牌路,112,(02)28718388,421X3F
607,臺北市私立優格快樂幼兒園,121.52318700000001,25.122894,臺北市北投區永欣里14鄰石牌路二段315巷10弄10號,北投區,石牌路,112,(02)28718388,421X3F
608,臺北市私立佳人幼兒園,121.5092051,25.1167963,臺北市北投區尊賢里19鄰實踐街49巷25號,北投區,實踐街,112,(02)28225958,421X3K
609,臺北市私立巨登堡幼兒園,,,,,,,(02)28939226,421X3P
610,臺北市私立聖德幼兒園,121.49926979999998,25.107951899999996,臺北市北投區洲美里10鄰洲美街271號,北投區,洲美街,112,(02)28343465,421X3U
611,臺北市私立優格幼兒園,121.52318700000001,25.122894,臺北市北投區永欣里14鄰石牌路二段315巷10弄10號,北投區,石牌路,112,(02)28710871,421X3W
612,臺北市私立優格幼兒園,121.52318700000001,25.122894,臺北市北投區永欣里14鄰石牌路二段315巷10弄10號,北投區,石牌路,112,(02)28710871,421X3W
613,臺北市私立卡蕾兒幼兒園,121.4965074,25.1371562,臺北市北投區文化里3鄰文化三路14號,北投區,文化三路,112,(02)28926957,421X3X
614,臺北市私立樂家幼兒園,121.50830690000001,25.114691600000004,臺北市北投區吉慶里1鄰實踐街6巷3弄11號,北投區,實踐街,112,(02)28288788,421X43
615,臺北榮民總醫院附設臺北市私立榮光幼兒園,121.52038219999999,25.1192105,臺北市北投區永欣里3鄰石牌路二段201號,北投區,石牌路,112,(02)28757465,421X44
616,臺北市私立豐年幼兒園,121.49642209999999,25.135750899999998,臺北市北投區豐年里16鄰中央北路二段95巷1弄40號,北投區,中央北路,112,(02)28925688,421X45
617,臺北市私立成美蒙特梭利幼兒園,121.52017190000001,25.1115098,臺北市北投區裕民里19鄰裕民六路114巷36弄5號,北投區,裕民六路,112,(02)28218915,421X49
618,私立普林思頓小學,121.55394809999999,25.049755899999997,臺北市松山區美仁里寧安街12號,松山區,寧安街,105,(02)25706767,311601
619,私立普林思頓小學,121.55394809999999,25.049755899999997,臺北市松山區美仁里寧安街12號,松山區,寧安街,105,(02)25706767,311601
620,私立復興國小,121.5484402,25.0394419,臺北市大安區仁愛里敦化南路1段262號,大安區,敦化南路,106,(02)27715859,331601
621,私立立人國(中)小,121.5519283,25.029835199999997,臺北市大安區義榮里安和路二段99號,大安區,安和路,106,(02)27361388,331602
622,私立立人國(中)小,121.5519283,25.029835199999997,臺北市大安區義榮里安和路二段99號,大安區,安和路,106,(02)27361388,331602
623,私立新民小學,121.53227700000001,25.0226359,臺北市大安區龍坡里辛亥路1段113號,大安區,辛亥路,106,(02)23630450,331603
624,私立光仁小學,121.4995687,25.0214153,臺北市萬華區壽德里萬大路423巷15號,萬華區,萬大路,108,(02)23032874,371601
625,私立靜心小學,121.5467338,24.998863,臺北市文山區興福里興隆路2段46號,文山區,興隆路,116,(02)29323118,381601
626,私立中山小學,121.55632790000001,24.9883007,臺北市文山區木柵路1段292號,文山區,木柵路,116,(02)29360935,381602
627,私立再興小學,121.5593087,24.9900513,臺北市文山區明義里興隆路4段2號,文山區,興隆路,116,(02)29371118,381603
628,私立再興小學,121.5593087,24.9900513,臺北市文山區明義里興隆路4段2號,文山區,興隆路,116,(02)29371118,381603
629,私立華興小學,121.545592,25.107102899999997,臺北市士林區芝山里仰德大道1段101號,士林區,仰德大道,111,(02)28316834,411601
630,私立華興小學,121.545592,25.107102899999997,臺北市士林區芝山里仰德大道1段101號,士林區,仰德大道,111,(02)28316834,411601
631,私立薇閣小學,121.5008795,25.1360521,臺北市北投區長安里育仁路106號,北投區,育仁路,112,(02)28912668,421601
632,私立立人國中(小),121.5519283,25.029835199999997,臺北市大安區義榮里安和路二段99號,大安區,安和路,106,(02)27381188,331502
633,私立立人國中(小),121.5519283,25.029835199999997,臺北市大安區義榮里安和路二段99號,大安區,安和路,106,(02)27381188,331502
634,臺北市普林思頓高中,121.55394809999999,25.049755899999997,臺北市松山區美仁里寧安街12號,松山區,寧安街,105,(02)25706767,311401
635,臺北市普林思頓高中,121.55394809999999,25.049755899999997,臺北市松山區美仁里寧安街12號,松山區,寧安街,105,(02)25706767,311401
636,臺北市私立協和祐德高級中學,121.58346999999999,25.042601,臺北市信義區忠孝東路5段790巷27號,信義區,忠孝東路,110,(02)27263131,321399
637,私立延平中學,121.53848149999999,25.036290700000002,臺北市大安區和安里建國南路1段275號,大安區,建國南路,106,(02)27071478,331301
638,私立金甌女中,121.5241925,25.034773100000002,臺北市大安區光明里杭州南路2段1號,大安區,杭州南路,106,(02)23214765,331302
639,私立復興實驗高中,121.54860890000002,25.0399743,臺北市大安區敦化南路1段,大安區,敦化南路,106,(02)27715859,331304
640,私立東方工商,121.5514468,25.0322561,臺北市大安區信義路四段186巷8號,大安區,信義路,106,(02)27554616,331402
641,私立喬治工商,121.55398600000001,25.026285,臺北市大安區基隆路2段172號,大安區,基隆路,106,(02)27386515,331403
642,私立開平餐飲,121.5423129,25.0285375,臺北市大安區復興南路2段148巷24號,大安區,復興南路,106,(02)27556939,331404
643,私立大同高中,121.521804,25.0671544,臺北市中山區聚英里中山北路3段40號,中山區,中山北路,104,(02)25925252,341302
644,私立稻江護家,121.5286327,25.065801999999998,臺北市中山區新生北路三段55號,中山區,新生北路,104,(02)25955161,341402
645,私立強恕中學,121.5199408,25.0250164,臺北市中正區板溪里汀州路二段143號,中正區,汀州路,100,(02)23656574,351301
646,臺北市開南高中,121.5198947,25.043252,臺北市中正區東門里濟南路1段6號,中正區,濟南路,100,(02)23212666,351402
647,臺北市靜修高中,121.51548659999999,25.057931,臺北市大同區雙連里寧夏路59號,大同區,寧夏路,103,(02)25574345,361301
648,私立稻江高商,121.5119277,25.0640547,臺北市大同區國昌里民權西路225巷24號,大同區,民權西路,103,(02)25912001,361401
649,私立東山高中,121.56171909999999,24.972692000000002,臺北市文山區老泉里老泉街26巷3號,文山區,老泉街,116,(02)29395826,381301
650,私立滬江高中,121.53888490000001,24.9894876,臺北市文山區景美里羅斯福路6段336號,文山區,羅斯福路,116,(02)86631122,381302
651,私立大誠高中,121.578524,24.9910526,臺北市文山區萬興里秀明路2段175號,文山區,秀明路,116,(02)22348989 ,381303
652,私立再興中學,121.5593087,24.9900513,臺北市文山區明義里興隆路4段2號,文山區,興隆路,116,(02)29366803,381304
653,私立再興中學,121.5593087,24.9900513,臺北市文山區明義里興隆路4段2號,文山區,興隆路,116,(02)29366803,381304
654,私立景文高中,121.567397,24.985367,臺北市文山區木新里保儀路127號,文山區,保儀路,116,(02)29390310,381305
655,臺北市靜心高中,121.5467338,24.998863,臺北市文山區興隆路二段46號,文山區,興隆路,116,(02)29323118,381306
656,私立文德女中,121.5895146,25.0776217,臺北市內湖區紫陽里成功路3段70號,內湖區,成功路,114,(02)27904570,401301
657,私立方濟中學,121.59052959999998,25.077309399999997,臺北市內湖區紫星里成功路三段61號,內湖區,成功路,114,(02)27910278,401302
658,私立達人女中,121.58764340000002,25.0812531,臺北市內湖區湖濱里內湖路2段314號,內湖區,內湖路,114,(02)27956899,401303
659,私立泰北高中,121.533898,25.097375,臺北市士林區福林里福林路240號,士林區,福林路,111,(02)28825560,411301
660,私立衛理女中,121.55231,25.101757,臺北市士林區翠山里至善路2段321號,士林區,至善路,111,(02)28411487,411302
661,私立華興中學,121.545592,25.107102899999997,臺北市士林區芝山里仰德大道1段101號,士林區,仰德大道,111,(02)28316834,411303
662,私立華興中學,121.545592,25.107102899999997,臺北市士林區芝山里仰德大道1段101號,士林區,仰德大道,111,(02)28316834,411303
663,私立華岡藝校,121.54909450000001,25.1371454,臺北市士林區建業路73巷8號,士林區,建業路,111,(02)28612354,411401
664,私立薇閣高中,121.50397109999999,25.139524800000004,臺北市北投區中心里珠海路50號,北投區,珠海路,112,(02)28925332,421301
665,臺北市幼華高中,121.4968898,25.133392899999997,臺北市北投區北投路二段55號,北投區,北投路,112,(02)28921166,421302
666,臺北市私立奎山實驗高級中學,121.52230279999999,25.112998,臺北市北投區榮華里明德路200號,北投區,明德路,112,(02)28212009,421303
667,私立惇敘工商,121.52698020000001,25.1448466,臺北市北投區泉源路221號,北投區,泉源路,112,(02)28912630,421404
668,私立南華高中進修學校,121.53119209999998,25.015617499999998,臺北市中正區富水里汀州路3段58號,中正區,汀州路,100,(02)23686818,351B09
669,東吳大學,121.545748,25.094414999999998,臺北市士林區臨溪路70號,士林區,臨溪路,111,(02)28819471,1003
670,中國文化大學,121.5394591,25.136280300000003,臺北市士林區華岡路55號,士林區,華岡路,111,(02)28610511,1006
671,世新大學,121.5442068,24.9886453,臺北市文山區木柵路一段17巷1號,文山區,木柵路,116,(02)22368225,1015
672,銘傳大學,121.52715659999998,25.0871487,臺北市士林區中山北路五段250號,士林區,中山北路,111,(02)28824564,1016
673,實踐大學,121.54472859999998,25.084573199999998,臺北市中山區大直街70號,中山區,大直街,104,(02)25381111,1017
674,大同大學,121.521804,25.0671544,臺北市中山區中山北路三段40號,中山區,中山北路,104,(02)21822928,1022
675,臺北醫學大學,121.5619186,25.0256312,臺北市信義區吳興街250號,信義區,吳興街,110,(02)27361661,1028
676,中國科技大學,121.5554004,24.9991318,臺北市文山區興隆路三段56號,文山區,興隆路,116,(02)29313416,1046
677,德明財經科技大學,121.5652249,25.0867061,臺北市內湖區環山路一段56號,內湖區,環山路,114,(02)26585801,1057
678,中華科技大學,121.6098889,25.0335957,臺北市南港區研究院路三段245號,南港區,研究院路,115,(02)27821862~4,1061
679,臺北城市科技大學,121.468879,25.133617,臺北市北投區學園路2號,北投區,學園路,112,(02)28927154,1071
680,康寧大學,121.6100508,25.0758234,臺北市內湖區康寧路三段75巷137號,內湖區,康寧路,114,(02)26321181,1079
681,馬偕醫護管理專科學校,121.4645108,25.1218803,臺北市北投區聖景路92號,北投區,聖景路,112,(02)28584180,1282
